{
  "type": "FeatureCollection",
  "features": [
    {
      "type": "Feature",
      "geometry": {
        "type": "Point",
        "coordinates": [
          200.71057000000002,
          87.28643033000003
        ]
      },
      "properties": {
        "name": "Haagen Herenhuis",
        "opacity": 1.0,
        "source_id": "text2",
        "geo_lon": -1.4092308892765133,
        "geo_lat": 50.25643428380078
      }
    },
    {
      "type": "Feature",
      "geometry": {
        "type": "Point",
        "coordinates": [
          228.3252,
          99.07619033000003
        ]
      },
      "properties": {
        "name": "Kleinwald Manor",
        "opacity": 1.0,
        "source_id": "text3",
        "geo_lon": -1.3831890970399674,
        "geo_lat": 50.263536001258714
      }
    },
    {
      "type": "Feature",
      "geometry": {
        "type": "Point",
        "coordinates": [
          232.32959,
          113.84814033
        ]
      },
      "properties": {
        "name": "Teugen House",
        "opacity": 0.5,
        "source_id": "text4",
        "geo_lon": -1.3794127838170815,
        "geo_lat": 50.272434080202025
      }
    },
    {
      "type": "Feature",
      "geometry": {
        "type": "Point",
        "coordinates": [
          182.67469,
          90.53335033000002
        ]
      },
      "properties": {
        "name": "Ruggbroder House",
        "opacity": 0.5,
        "source_id": "text5",
        "geo_lon": -1.426239505352965,
        "geo_lat": 50.258390108893785
      }
    },
    {
      "type": "Feature",
      "geometry": {
        "type": "Point",
        "coordinates": [
          174.39881000000003,
          100.76693033000001
        ]
      },
      "properties": {
        "name": "Saponatheim Estate",
        "opacity": 0.5,
        "source_id": "text6",
        "geo_lon": -1.4340440186683556,
        "geo_lat": 50.26455444080072
      }
    },
    {
      "type": "Feature",
      "geometry": {
        "type": "Point",
        "coordinates": [
          175.02161,
          112.78030033000002
        ]
      },
      "properties": {
        "name": "Steinhager Mansion",
        "opacity": 0.5,
        "source_id": "text7",
        "geo_lon": -1.4334566912913487,
        "geo_lat": 50.27179085269186
      }
    },
    {
      "type": "Feature",
      "geometry": {
        "type": "Point",
        "coordinates": [
          201.27295000000004,
          125.50549033000001
        ]
      },
      "properties": {
        "name": "Magirius's Townhouse",
        "opacity": 0.5,
        "source_id": "text8",
        "geo_lon": -1.4087005405766397,
        "geo_lat": 50.2794560387498
      }
    },
    {
      "type": "Feature",
      "geometry": {
        "type": "Point",
        "coordinates": [
          202.16285000000005,
          144.10390033000002
        ]
      },
      "properties": {
        "name": "High Temple of Sigmar",
        "opacity": 0.5,
        "source_id": "text9",
        "geo_lon": -1.4078613263300137,
        "geo_lat": 50.29065903634998
      }
    },
    {
      "type": "Feature",
      "geometry": {
        "type": "Point",
        "coordinates": [
          227.88025000000005,
          140.54443033
        ]
      },
      "properties": {
        "name": "Temple of Myrmidia",
        "opacity": 0.5,
        "source_id": "text10",
        "geo_lon": -1.3836087041632803,
        "geo_lat": 50.28851494264155
      }
    },
    {
      "type": "Feature",
      "geometry": {
        "type": "Point",
        "coordinates": [
          178.49219,
          135.47213033000003
        ]
      },
      "properties": {
        "name": "Temple of Handrich",
        "opacity": 0.5,
        "source_id": "text11",
        "geo_lon": -1.4301837840208074,
        "geo_lat": 50.28545957582646
      }
    },
    {
      "type": "Feature",
      "geometry": {
        "type": "Point",
        "coordinates": [
          226.63452,
          158.69787033000003
        ]
      },
      "properties": {
        "name": "Temple of Ulric",
        "opacity": 0.5,
        "source_id": "text12",
        "geo_lon": -1.3847834815129256,
        "geo_lat": 50.29944990669251
      }
    },
    {
      "type": "Feature",
      "geometry": {
        "type": "Point",
        "coordinates": [
          182.14063000000004,
          156.11724033000002
        ]
      },
      "properties": {
        "name": "Temple of Bögenauer",
        "opacity": 0.5,
        "source_id": "text13",
        "geo_lon": -1.4267431470661385,
        "geo_lat": 50.297895430170215
      }
    },
    {
      "type": "Feature",
      "geometry": {
        "type": "Point",
        "coordinates": [
          168.16956000000005,
          148.90926033000002
        ]
      },
      "properties": {
        "name": "Temple of Verena",
        "opacity": 0.5,
        "source_id": "text14",
        "geo_lon": -1.439918471242571,
        "geo_lat": 50.29355360833479
      }
    },
    {
      "type": "Feature",
      "geometry": {
        "type": "Point",
        "coordinates": [
          201.45093000000003,
          179.78796033000003
        ]
      },
      "properties": {
        "name": "Temple of Shallya",
        "opacity": 0.5,
        "source_id": "text15",
        "geo_lon": -1.4085326977273145,
        "geo_lat": 50.312153800609124
      }
    },
    {
      "type": "Feature",
      "geometry": {
        "type": "Point",
        "coordinates": [
          155.80042000000003,
          165.54989033
        ]
      },
      "properties": {
        "name": "Bögenhafen Rathaus (Town Hall)",
        "opacity": 0.5,
        "source_id": "text16",
        "geo_lon": -1.4515831060403122,
        "geo_lat": 50.30357731132637
      }
    },
    {
      "type": "Feature",
      "geometry": {
        "type": "Point",
        "coordinates": [
          120.82825000000003,
          157.00710033000001
        ]
      },
      "properties": {
        "name": "Golden Trout Club",
        "opacity": 0.5,
        "source_id": "text18",
        "geo_lon": -1.4845633771937248,
        "geo_lat": 50.2984314490796
      }
    },
    {
      "type": "Feature",
      "geometry": {
        "type": "Point",
        "coordinates": [
          144.94385,
          143.30303033
        ]
      },
      "properties": {
        "name": "Merchant's Guild",
        "opacity": 0.5,
        "source_id": "text19",
        "geo_lon": -1.4618213218100515,
        "geo_lat": 50.29017662174099
      }
    },
    {
      "type": "Feature",
      "geometry": {
        "type": "Point",
        "coordinates": [
          237.40186,
          155.40533033000003
        ]
      },
      "properties": {
        "name": "The Wolf's Tail",
        "opacity": 0.5,
        "source_id": "text20",
        "geo_lon": -1.3746294134982446,
        "geo_lat": 50.29746660179072
      }
    },
    {
      "type": "Feature",
      "geometry": {
        "type": "Point",
        "coordinates": [
          258.04697,
          145.61672033000002
        ]
      },
      "properties": {
        "name": "Journey's End Inn",
        "opacity": 0.5,
        "source_id": "text21",
        "geo_lon": -1.3551601805112146,
        "geo_lat": 50.291570303433005
      }
    },
    {
      "type": "Feature",
      "geometry": {
        "type": "Point",
        "coordinates": [
          272.81894,
          130.13287033000003
        ]
      },
      "properties": {
        "name": "Jeweller's Guild",
        "opacity": 0.5,
        "source_id": "text22",
        "geo_lon": -1.3412295729432517,
        "geo_lat": 50.28224340213382
      }
    },
    {
      "type": "Feature",
      "geometry": {
        "type": "Point",
        "coordinates": [
          263.92026,
          113.04723033000002
        ]
      },
      "properties": {
        "name": "Tailors' and Weavers' Guild",
        "opacity": 0.5,
        "source_id": "text23",
        "geo_lon": -1.3496214136356495,
        "geo_lat": 50.271951641498504
      }
    },
    {
      "type": "Feature",
      "geometry": {
        "type": "Point",
        "coordinates": [
          254.22068000000002,
          94.71578033000003
        ]
      },
      "properties": {
        "name": "The Crossed Pikes",
        "opacity": 0.5,
        "source_id": "text24",
        "geo_lon": -1.3587685377195773,
        "geo_lat": 50.260909450775856
      }
    },
    {
      "type": "Feature",
      "geometry": {
        "type": "Point",
        "coordinates": [
          246.74561,
          74.42663033000002
        ]
      },
      "properties": {
        "name": "Main Guard Barracks",
        "opacity": 0.5,
        "source_id": "text25",
        "geo_lon": -1.3658178525173361,
        "geo_lat": 50.24868801363366
      }
    },
    {
      "type": "Feature",
      "geometry": {
        "type": "Point",
        "coordinates": [
          254.66550000000007,
          205.41636033000003
        ]
      },
      "properties": {
        "name": "Metalworkers' Guild",
        "opacity": 0.5,
        "source_id": "text26",
        "geo_lon": -1.3583490531918954,
        "geo_lat": 50.32759140542032
      }
    },
    {
      "type": "Feature",
      "geometry": {
        "type": "Point",
        "coordinates": [
          228.68116000000003,
          214.84901033
        ]
      },
      "properties": {
        "name": "Masons' Guild",
        "opacity": 0.5,
        "source_id": "text27",
        "geo_lon": -1.3828534113413171,
        "geo_lat": 50.33327328657647
      }
    },
    {
      "type": "Feature",
      "geometry": {
        "type": "Point",
        "coordinates": [
          233.30847,
          237.71881833000003
        ]
      },
      "properties": {
        "name": "Carpenters' Guild",
        "opacity": 0.5,
        "source_id": "text28",
        "geo_lon": -1.3784896575762262,
        "geo_lat": 50.34704921710713
      }
    },
    {
      "type": "Feature",
      "geometry": {
        "type": "Point",
        "coordinates": [
          203.40869000000004,
          254.98240633
        ]
      },
      "properties": {
        "name": "The Half-Measure Tavern",
        "opacity": 0.5,
        "source_id": "text29",
        "geo_lon": -1.4066864452456038,
        "geo_lat": 50.357448167067616
      }
    },
    {
      "type": "Feature",
      "geometry": {
        "type": "Point",
        "coordinates": [
          134.62134000000003,
          200.34402033000003
        ]
      },
      "properties": {
        "name": "Stevedores' Guild",
        "opacity": 0.5,
        "source_id": "text30",
        "geo_lon": -1.4715558958666175,
        "geo_lat": 50.324536014510706
      }
    },
    {
      "type": "Feature",
      "geometry": {
        "type": "Point",
        "coordinates": [
          155.26648,
          184.94920033000002
        ]
      },
      "properties": {
        "name": "Town Courts",
        "opacity": 0.5,
        "source_id": "text31",
        "geo_lon": -1.4520866345882877,
        "geo_lat": 50.315262741606446
      }
    },
    {
      "type": "Feature",
      "geometry": {
        "type": "Point",
        "coordinates": [
          38.87067000000002,
          161.10055033000003
        ]
      },
      "properties": {
        "name": "Kringler's Ferry",
        "opacity": 0.5,
        "source_id": "text32",
        "geo_lon": -1.5618529251822395,
        "geo_lat": 50.300897192684914
      }
    },
    {
      "type": "Feature",
      "geometry": {
        "type": "Point",
        "coordinates": [
          294.70993,
          266.19487033
        ]
      },
      "properties": {
        "name": "Chapel of Morr",
        "opacity": 0.5,
        "source_id": "text33",
        "geo_lon": -1.3205854211500792,
        "geo_lat": 50.36420214266467
      }
    },
    {
      "type": "Feature",
      "geometry": {
        "type": "Point",
        "coordinates": [
          272.01815999999997,
          272.06803933000003
        ]
      },
      "properties": {
        "name": "Garden of Morr",
        "opacity": 0.5,
        "source_id": "text34",
        "geo_lon": -1.3419847431695842,
        "geo_lat": 50.3677399234864
      }
    },
    {
      "type": "Feature",
      "geometry": {
        "type": "Point",
        "coordinates": [
          285.81125,
          163.59219033000002
        ]
      },
      "properties": {
        "name": "The East Gate",
        "opacity": 0.5,
        "source_id": "text35",
        "geo_lon": -1.3289772618424769,
        "geo_lat": 50.30239806490682
      }
    },
    {
      "type": "Feature",
      "geometry": {
        "type": "Point",
        "coordinates": [
          78.20319,
          90.17742033000002
        ]
      },
      "properties": {
        "name": "The West Gate",
        "opacity": 0.5,
        "source_id": "text36",
        "geo_lon": -1.5247606551072908,
        "geo_lat": 50.258175709763115
      }
    },
    {
      "type": "Feature",
      "geometry": {
        "type": "Point",
        "coordinates": [
          72.33002000000005,
          76.38436033000002
        ]
      },
      "properties": {
        "name": "Shrine to Taal",
        "opacity": 0.5,
        "source_id": "text37",
        "geo_lon": -1.5302993088176577,
        "geo_lat": 50.24986727812411
      }
    },
    {
      "type": "Feature",
      "geometry": {
        "type": "Point",
        "coordinates": [
          55.9563,
          106.10622033000001
        ]
      },
      "properties": {
        "name": "Water Gate",
        "opacity": 0.5,
        "source_id": "text38",
        "geo_lon": -1.545740436016515,
        "geo_lat": 50.26777063256425
      }
    },
    {
      "type": "Feature",
      "geometry": {
        "type": "Point",
        "coordinates": [
          235.97827,
          71.40105033000003
        ]
      },
      "properties": {
        "name": "Postern Gate",
        "opacity": 0.5,
        "source_id": "text39",
        "geo_lon": -1.3759719205320171,
        "geo_lat": 50.246865515609414
      }
    },
    {
      "type": "Feature",
      "geometry": {
        "type": "Point",
        "coordinates": [
          116.46778,
          184.94920033000002
        ]
      },
      "properties": {
        "name": "Teamsters' Guild",
        "opacity": 0.5,
        "source_id": "text40",
        "geo_lon": -1.4886754892804588,
        "geo_lat": 50.315262741606446
      }
    },
    {
      "type": "Feature",
      "geometry": {
        "type": "Point",
        "coordinates": [
          181.16187000000002,
          178.09716033
        ]
      },
      "properties": {
        "name": "Cartwrights' Guild",
        "opacity": 0.5,
        "source_id": "text41",
        "geo_lon": -1.427666160141796,
        "geo_lat": 50.311135324925324
      }
    },
    {
      "type": "Feature",
      "geometry": {
        "type": "Point",
        "coordinates": [
          157.38759698839493,
          202.16218662550196
        ]
      },
      "properties": {
        "name": "Furlohnstrasse",
        "opacity": 0.5,
        "source_id": "text46",
        "geo_lon": -1.4500863293906012,
        "geo_lat": 50.325631210962726
      }
    },
    {
      "type": "Feature",
      "geometry": {
        "type": "Point",
        "coordinates": [
          299.69333000000006,
          119.09838033000003
        ]
      },
      "properties": {
        "name": "Schaffenfest",
        "opacity": 0.5,
        "source_id": "text58",
        "geo_lon": -1.3158858590907068,
        "geo_lat": 50.275596631523364
      }
    },
    {
      "type": "Feature",
      "geometry": {
        "type": "Point",
        "coordinates": [
          309.12607,
          174.62664033000001
        ]
      },
      "properties": {
        "name": "Livestock Auction Yard",
        "opacity": 0.5,
        "source_id": "text59",
        "geo_lon": -1.3069903766851358,
        "geo_lat": 50.309044811422744
      }
    },
    {
      "type": "Feature",
      "geometry": {
        "type": "Point",
        "coordinates": [
          213.73145,
          61.79037032999997
        ]
      },
      "properties": {
        "name": "Jousting Field",
        "opacity": 0.5,
        "source_id": "text60",
        "geo_lon": -1.3969516354282092,
        "geo_lat": 50.24107639573432
      }
    }
  ]
}