{
  "type": "FeatureCollection",
  "features": [
    {
      "type": "Feature",
      "geometry": {
        "type": "Point",
        "coordinates": [
          -22.548235854719998,
          28.968372579199993
        ]
      },
      "properties": {
        "name": "Al-Haikk",
        "province": "Araby",
        "estate": "",
        "population": 61067,
        "tags": [],
        "notes": [],
        "size_category": 6,
        "wiki": {
          "title": null,
          "url": null,
          "description": null,
          "image": null
        }
      }
    },
    {
      "type": "Feature",
      "geometry": {
        "type": "Point",
        "coordinates": [
          -17.49016098752,
          27.574299756799995
        ]
      },
      "properties": {
        "name": "Arjijil",
        "province": "Araby",
        "estate": "",
        "population": 2877,
        "tags": [],
        "notes": [],
        "size_category": 3,
        "wiki": {
          "title": null,
          "url": null,
          "description": null,
          "image": null
        }
      }
    },
    {
      "type": "Feature",
      "geometry": {
        "type": "Point",
        "coordinates": [
          -11.51041720128,
          25.732707417599997
        ]
      },
      "properties": {
        "name": "Djambiya",
        "province": "Araby",
        "estate": "",
        "population": 202,
        "tags": [],
        "notes": [],
        "size_category": 1,
        "wiki": {
          "title": null,
          "url": null,
          "description": null,
          "image": null
        }
      }
    },
    {
      "type": "Feature",
      "geometry": {
        "type": "Point",
        "coordinates": [
          -24.367562055679997,
          29.920388883199994
        ]
      },
      "properties": {
        "name": "Fyrus",
        "province": "Araby",
        "estate": "",
        "population": 6120,
        "tags": [],
        "notes": [],
        "size_category": 4,
        "wiki": {
          "title": null,
          "url": null,
          "description": null,
          "image": null
        }
      }
    },
    {
      "type": "Feature",
      "geometry": {
        "type": "Point",
        "coordinates": [
          -18.224572639679998,
          28.544845795199997
        ]
      },
      "properties": {
        "name": "Kadira",
        "province": "Araby",
        "estate": "",
        "population": 102,
        "tags": [],
        "notes": [],
        "size_category": 1,
        "wiki": {
          "title": null,
          "url": null,
          "description": null,
          "image": null
        }
      }
    },
    {
      "type": "Feature",
      "geometry": {
        "type": "Point",
        "coordinates": [
          -14.9062506144,
          26.852497811199996
        ]
      },
      "properties": {
        "name": "Kamt",
        "province": "Araby",
        "estate": "",
        "population": 152,
        "tags": [],
        "notes": [],
        "size_category": 1,
        "wiki": {
          "title": null,
          "url": null,
          "description": null,
          "image": null
        }
      }
    },
    {
      "type": "Feature",
      "geometry": {
        "type": "Point",
        "coordinates": [
          -18.289063151999997,
          28.325154841599996
        ]
      },
      "properties": {
        "name": "Mahabbah",
        "province": "Araby",
        "estate": "",
        "population": 27819,
        "tags": [],
        "notes": [],
        "size_category": 5,
        "wiki": {
          "title": null,
          "url": null,
          "description": null,
          "image": null
        }
      }
    },
    {
      "type": "Feature",
      "geometry": {
        "type": "Point",
        "coordinates": [
          -24.48143432768,
          25.992888623999995
        ]
      },
      "properties": {
        "name": "Martek",
        "province": "Araby",
        "estate": "",
        "population": 16944,
        "tags": [],
        "notes": [],
        "size_category": 5,
        "wiki": {
          "title": null,
          "url": null,
          "description": null,
          "image": null
        }
      }
    },
    {
      "type": "Feature",
      "geometry": {
        "type": "Point",
        "coordinates": [
          -16.28186949472,
          26.445624332799994
        ]
      },
      "properties": {
        "name": "Meknes",
        "province": "Araby",
        "estate": "",
        "population": 95,
        "tags": [],
        "notes": [
          "on the coast, port"
        ],
        "size_category": 1,
        "wiki": {
          "title": null,
          "url": null,
          "description": null,
          "image": null
        }
      }
    },
    {
      "type": "Feature",
      "geometry": {
        "type": "Point",
        "coordinates": [
          -13.444010564479997,
          26.400675811199996
        ]
      },
      "properties": {
        "name": "Ras Karim",
        "province": "Araby",
        "estate": "",
        "population": 184,
        "tags": [],
        "notes": [
          "A port some hundred leagues east of Copher"
        ],
        "size_category": 1,
        "wiki": {
          "title": null,
          "url": null,
          "description": null,
          "image": null
        }
      }
    },
    {
      "type": "Feature",
      "geometry": {
        "type": "Point",
        "coordinates": [
          -6.351071191679999,
          27.112218662399993
        ]
      },
      "properties": {
        "name": "Teshert",
        "province": "Araby",
        "estate": "",
        "population": 93,
        "tags": [],
        "notes": [],
        "size_category": 1,
        "wiki": {
          "title": null,
          "url": null,
          "description": null,
          "image": null
        }
      }
    },
    {
      "type": "Feature",
      "geometry": {
        "type": "Point",
        "coordinates": [
          -19.27970780832,
          27.242961289599997
        ]
      },
      "properties": {
        "name": "Symira",
        "province": "Araby",
        "estate": "",
        "population": 6212,
        "tags": [],
        "notes": [],
        "size_category": 4,
        "wiki": {
          "title": null,
          "url": null,
          "description": null,
          "image": null
        }
      }
    },
    {
      "type": "Feature",
      "geometry": {
        "type": "Point",
        "coordinates": [
          -20.96563024896,
          28.533384175999995
        ]
      },
      "properties": {
        "name": "Baskra",
        "province": "Araby",
        "estate": "",
        "population": 22811,
        "tags": [],
        "notes": [],
        "size_category": 5,
        "wiki": {
          "title": null,
          "url": null,
          "description": null,
          "image": null
        }
      }
    },
    {
      "type": "Feature",
      "geometry": {
        "type": "Point",
        "coordinates": [
          -17.96772191936,
          26.106766147199995
        ]
      },
      "properties": {
        "name": "El-Mansurah",
        "province": "Araby",
        "estate": "",
        "population": 7120,
        "tags": [],
        "notes": [],
        "size_category": 4,
        "wiki": {
          "title": null,
          "url": null,
          "description": null,
          "image": null
        }
      }
    },
    {
      "type": "Feature",
      "geometry": {
        "type": "Point",
        "coordinates": [
          -18.11458398016,
          25.148070316799995
        ]
      },
      "properties": {
        "name": "Oasis of a Thousand and One Camels",
        "province": "Araby",
        "estate": "",
        "population": 246,
        "tags": [],
        "notes": [],
        "size_category": 1,
        "wiki": {
          "title": null,
          "url": null,
          "description": null,
          "image": null
        }
      }
    },
    {
      "type": "Feature",
      "geometry": {
        "type": "Point",
        "coordinates": [
          -15.609375266879997,
          26.890259190399995
        ]
      },
      "properties": {
        "name": "Surah",
        "province": "Araby",
        "estate": "",
        "population": 345,
        "tags": [],
        "notes": [],
        "size_category": 2,
        "wiki": {
          "title": null,
          "url": null,
          "description": null,
          "image": null
        }
      }
    },
    {
      "type": "Feature",
      "geometry": {
        "type": "Point",
        "coordinates": [
          -13.283854390719998,
          26.305623839999996
        ]
      },
      "properties": {
        "name": "Maharek",
        "province": "Araby",
        "estate": "",
        "population": 782,
        "tags": [],
        "notes": [],
        "size_category": 2,
        "wiki": {
          "title": null,
          "url": null,
          "description": null,
          "image": null
        }
      }
    },
    {
      "type": "Feature",
      "geometry": {
        "type": "Point",
        "coordinates": [
          -12.188802575359999,
          25.9827082976
        ]
      },
      "properties": {
        "name": "Kaman Sala",
        "province": "Araby",
        "estate": "",
        "population": 318,
        "tags": [],
        "notes": [],
        "size_category": 2,
        "wiki": {
          "title": null,
          "url": null,
          "description": null,
          "image": null
        }
      }
    },
    {
      "type": "Feature",
      "geometry": {
        "type": "Point",
        "coordinates": [
          -17.354410991039998,
          26.786238169599994
        ]
      },
      "properties": {
        "name": "Melrhir Oasis",
        "province": "Araby",
        "estate": "",
        "population": 101,
        "tags": [],
        "notes": [],
        "size_category": 1,
        "wiki": {
          "title": null,
          "url": null,
          "description": null,
          "image": null
        }
      }
    },
    {
      "type": "Feature",
      "geometry": {
        "type": "Point",
        "coordinates": [
          -11.265625336639998,
          25.977499107199996
        ]
      },
      "properties": {
        "name": "Istrabul",
        "province": "Araby",
        "estate": "",
        "population": 581,
        "tags": [],
        "notes": [],
        "size_category": 2,
        "wiki": {
          "title": null,
          "url": null,
          "description": null,
          "image": null
        }
      }
    },
    {
      "type": "Feature",
      "geometry": {
        "type": "Point",
        "coordinates": [
          -16.12166641024,
          27.023828713599997
        ]
      },
      "properties": {
        "name": "El-Kabbath",
        "province": "Araby",
        "estate": "",
        "population": 20,
        "tags": [],
        "notes": [],
        "size_category": 1,
        "wiki": {
          "title": null,
          "url": null,
          "description": null,
          "image": null
        }
      }
    },
    {
      "type": "Feature",
      "geometry": {
        "type": "Point",
        "coordinates": [
          -5.807698405568,
          27.837943254399995
        ]
      },
      "properties": {
        "name": "Mina Irq",
        "province": "Araby",
        "estate": "",
        "population": 151,
        "tags": [],
        "notes": [],
        "size_category": 1,
        "wiki": {
          "title": null,
          "url": null,
          "description": null,
          "image": null
        }
      }
    },
    {
      "type": "Feature",
      "geometry": {
        "type": "Point",
        "coordinates": [
          -4.966320474559999,
          29.9461722752
        ]
      },
      "properties": {
        "name": "Hettasha",
        "province": "Araby",
        "estate": "",
        "population": 440,
        "tags": [],
        "notes": [],
        "size_category": 2,
        "wiki": {
          "title": null,
          "url": null,
          "description": null,
          "image": null
        }
      }
    },
    {
      "type": "Feature",
      "geometry": {
        "type": "Point",
        "coordinates": [
          -5.524271852159999,
          29.4913395872
        ]
      },
      "properties": {
        "name": "Chayuk",
        "province": "Araby",
        "estate": "",
        "population": 56,
        "tags": [],
        "notes": [],
        "size_category": 1,
        "wiki": {
          "title": null,
          "url": null,
          "description": null,
          "image": null
        }
      }
    },
    {
      "type": "Feature",
      "geometry": {
        "type": "Point",
        "coordinates": [
          -5.6108189798399986,
          28.8818240512
        ]
      },
      "properties": {
        "name": "Tirzor",
        "province": "Araby",
        "estate": "",
        "population": 36,
        "tags": [],
        "notes": [],
        "size_category": 1,
        "wiki": {
          "title": null,
          "url": null,
          "description": null,
          "image": null
        }
      }
    },
    {
      "type": "Feature",
      "geometry": {
        "type": "Point",
        "coordinates": [
          -4.391796309759999,
          26.729203135999995
        ]
      },
      "properties": {
        "name": "Djebellna",
        "province": "Araby",
        "estate": "",
        "population": 100,
        "tags": [],
        "notes": [],
        "size_category": 1,
        "wiki": {
          "title": null,
          "url": null,
          "description": null,
          "image": null
        }
      }
    },
    {
      "type": "Feature",
      "geometry": {
        "type": "Point",
        "coordinates": [
          -1.9776892649599995,
          32.638329484799996
        ]
      },
      "properties": {
        "name": "Rhothira",
        "province": "Araby",
        "estate": "",
        "population": 358,
        "tags": [],
        "notes": [],
        "size_category": 2,
        "wiki": {
          "title": null,
          "url": null,
          "description": null,
          "image": null
        }
      }
    }
  ]
}