{
  "type": "FeatureCollection",
  "name": "settlements_dawi_zharr",
  "schema_version": 2,
  "features": [
    {
      "type": "Feature",
      "id": "text18846",
      "geometry": {
        "type": "Point",
        "coordinates": [
          20.505033,
          60.334018
        ]
      },
      "properties": {
        "id": "text18846",
        "name": "Uzkulak",
        "category": "settlement",
        "dataset": "dawi_zharr",
        "in_gazetteer": true,
        "type": null,
        "region": "Dawi-Zharr",
        "province": null,
        "estate": null,
        "population": 10000,
        "population_estimated": false,
        "size_category": 4,
        "trade": null,
        "source": null,
        "tags": [],
        "notes": [],
        "history": {
          "province_2512": null,
          "province_2276": null,
          "ruler_2515": null,
          "ruler_2512": null,
          "ruler_2276": null
        },
        "wiki": {
          "title": "Uzkulak",
          "url": "https://warhammerfantasy.fandom.com/wiki/Uzkulak",
          "description": "Uzkulak, also known as the \" Place of the Skull \", is a city of the Dawi-Zharr located in the northernmost region of the Dark Lands that served as the original seat of the Dwarfs of the east before the Great Catastrophe transformed their society into that of the Chaos Dwarfs. Around 1000 IC, in order to fuel the ever-increasing demand for slaves in the Chaos Dwarf empire, a great sea canal was constructed underground linking the Falls of Doom to the north of Zharr-Naggrund with the Sea of Chaos to the west of Uzkulak, giving the Chaos Dwarf fleet an exit to the north. Uzkulak is a strange, secretive place, and the bustling workings of its great slave port and anchorage hide an ancient inner city that is little more than a heavily garrisoned tomb.",
          "image": "https://static.wikia.nocookie.net/warhammerfb/images/9/90/Warhammer_Place_of_the_Skull.png/revision/latest?cb=20180317064425"
        },
        "svg_layer": "Dawi-Zharr"
      }
    }
  ]
}