{
  "type": "FeatureCollection",
  "name": "settlements_skavendom",
  "schema_version": 2,
  "features": [
    {
      "type": "Feature",
      "id": "text4-7",
      "geometry": {
        "type": "Point",
        "coordinates": [
          -8.714387,
          41.682854
        ]
      },
      "properties": {
        "id": "text4-7",
        "name": "Skavenblight",
        "category": "settlement",
        "dataset": "skavendom",
        "in_gazetteer": true,
        "type": "City",
        "region": "Skavendom",
        "province": null,
        "estate": null,
        "population": 250000,
        "population_estimated": false,
        "size_category": 6,
        "trade": null,
        "source": "Warhammer Fantasy Roleplay 2e: Children of the Horned Rat",
        "tags": [],
        "notes": [
          "Skryre, Moulder, Eshin, Pestilens (Mors)"
        ],
        "history": {
          "province_2512": null,
          "province_2276": null,
          "ruler_2515": null,
          "ruler_2512": null,
          "ruler_2276": null
        },
        "wiki": {
          "title": "Skavenblight",
          "url": "https://warhammerfantasy.fandom.com/wiki/Skavenblight",
          "description": "Skavenblight, also called the Great City by the Skaven themselves, is the name given by Tileans to the subterranean capital city and foul heart of the Skaven Under-Empire and the birthplace of the Skaven race. Through magics more powerful than the unsuspecting mortal world can imagine, the largest and most densely populated city in the world is kept secret, its locations only guessed at by the very wisest of mortal-kind. Deep in the rotting heart of the Blighted Marsh festers the vile capital of the ratmen, the decay-ridden nexus of all Skavendom.",
          "image": "https://static.wikia.nocookie.net/warhammerfb/images/b/b1/Skavenblights.png/revision/latest?cb=20140507222828"
        },
        "svg_layer": "Under-Empire"
      }
    },
    {
      "type": "Feature",
      "id": "text5-1",
      "geometry": {
        "type": "Point",
        "coordinates": [
          11.302084,
          61.611611
        ]
      },
      "properties": {
        "id": "text5-1",
        "name": "Hell Pit",
        "category": "settlement",
        "dataset": "skavendom",
        "in_gazetteer": true,
        "type": "City",
        "region": "Skavendom",
        "province": null,
        "estate": null,
        "population": 115000,
        "population_estimated": false,
        "size_category": 6,
        "trade": null,
        "source": "Warhammer Fantasy Roleplay 2e: Children of the Horned Rat",
        "tags": [],
        "notes": [
          "Moulder"
        ],
        "history": {
          "province_2512": null,
          "province_2276": null,
          "ruler_2515": null,
          "ruler_2512": null,
          "ruler_2276": null
        },
        "wiki": {
          "title": "Hell Pit",
          "url": "https://warhammerfantasy.fandom.com/wiki/Hell_Pit",
          "description": "Hell Pit is perhaps one of the most horrific of all Skaven strongholds within the northern reaches of their subterranean Under-Empire. Founded in -1450 IC by Warlord Malkrit, this mighty stronghold of the Skaven lies to the far north of the Old World, in the blasted wasteland known as Troll Country, where the infernal breeding pits of Clan Moulder can be found. This bulgingly overpopulated Skaven stronghold is burrowed into the walls and floor of a ragged chasm in a snowy mountainside on the northern spur of the Worlds Edge Mountains.",
          "image": "https://static.wikia.nocookie.net/warhammerfb/images/e/e9/Hell_Pit.png/revision/latest?cb=20140526230949"
        },
        "svg_layer": "Under-Empire"
      }
    },
    {
      "type": "Feature",
      "id": "text6-2",
      "geometry": {
        "type": "Point",
        "coordinates": [
          -0.000109,
          51.457372
        ]
      },
      "properties": {
        "id": "text6-2",
        "name": "Under-Altdorf",
        "category": "settlement",
        "dataset": "skavendom",
        "in_gazetteer": true,
        "type": "City",
        "region": "Skavendom",
        "province": null,
        "estate": null,
        "population": 120000,
        "population_estimated": false,
        "size_category": 6,
        "trade": null,
        "source": "Warhammer Fantasy Roleplay 2e: Children of the Horned Rat",
        "tags": [],
        "notes": [
          "Skryre, Eshin, Moulder (Pestilens, Skabb, Mors, Skaul)"
        ],
        "history": {
          "province_2512": null,
          "province_2276": null,
          "ruler_2515": null,
          "ruler_2512": null,
          "ruler_2276": null
        },
        "wiki": {
          "title": "Under-Altdorf",
          "url": "https://warhammerfantasy.fandom.com/wiki/Under-Altdorf",
          "description": "Under-Altdorf, known by its heretical title as \" New Skavenblight \", is the second largest and most powerful subterranean Skaven stronghold within the ratmen 's Under-Empire. The city is built beneath the Imperial capital city of Altdorf in the Reikland and boasts the second largest Skaven population in the Under-Empire, but the lack of available warpstone ensures that it will never rival the Under-Empire's capital of Skavenblight as the Skaven's greatest city. Control of Under-Altdorf is split between several Skaven clans, with Clan Skryre holding the lion's share of power.",
          "image": "https://static.wikia.nocookie.net/warhammerfb/images/6/60/Warhammer_Under-Altdorf.jpg/revision/latest?cb=20170408225747"
        },
        "svg_layer": "Under-Empire"
      }
    },
    {
      "type": "Feature",
      "id": "text13-6",
      "geometry": {
        "type": "Point",
        "coordinates": [
          -6.395834,
          49.594684
        ]
      },
      "properties": {
        "id": "text13-6",
        "name": "Black Chasm",
        "category": "settlement",
        "dataset": "skavendom",
        "in_gazetteer": true,
        "type": "City",
        "region": "Skavendom",
        "province": null,
        "estate": null,
        "population": 25000,
        "population_estimated": false,
        "size_category": 5,
        "trade": null,
        "source": "Warhammer Fantasy Roleplay 2e: Children of the Horned Rat",
        "tags": [],
        "notes": [
          "Eshin, Pestilens (Moulder, Flem)"
        ],
        "history": {
          "province_2512": null,
          "province_2276": null,
          "ruler_2515": null,
          "ruler_2512": null,
          "ruler_2276": null
        },
        "wiki": {
          "title": "Black Chasm",
          "url": "https://warhammerfantasy.fandom.com/wiki/Black_Chasm",
          "description": "The Black Chasm in the lands of Bretonnia has been a site of strife between the clans of the Skaven since Clan Pestilens returned from its long sojourn to Lustria. It was here that Clan Pestilens ' ancestors made one of their earliest homes. Their ancient forebears carved out a series of strongholds within the limitless depths of the Black Chasm itself.",
          "image": "https://static.wikia.nocookie.net/warhammerfb/images/c/ca/Warhammer_Black_Chasm.png/revision/latest?cb=20170408230906"
        },
        "svg_layer": "Under-Empire"
      }
    },
    {
      "type": "Feature",
      "id": "text14-4",
      "geometry": {
        "type": "Point",
        "coordinates": [
          12.302084,
          36.20927
        ]
      },
      "properties": {
        "id": "text14-4",
        "name": "The City of Pillars",
        "category": "settlement",
        "dataset": "skavendom",
        "in_gazetteer": true,
        "type": "City",
        "region": "Skavendom",
        "province": null,
        "estate": null,
        "population": 95000,
        "population_estimated": false,
        "size_category": 6,
        "trade": null,
        "source": "Warhammer Fantasy Roleplay 2e: Children of the Horned Rat",
        "tags": [],
        "notes": [
          "Mors"
        ],
        "history": {
          "province_2512": null,
          "province_2276": null,
          "ruler_2515": null,
          "ruler_2512": null,
          "ruler_2276": null
        },
        "wiki": {
          "title": null,
          "url": null,
          "description": null,
          "image": null
        },
        "svg_layer": "Under-Empire"
      }
    },
    {
      "type": "Feature",
      "id": "text15-3",
      "geometry": {
        "type": "Point",
        "coordinates": [
          -9.730469,
          50.171507
        ]
      },
      "properties": {
        "id": "text15-3",
        "name": "Under-Mousillon",
        "category": "settlement",
        "dataset": "skavendom",
        "in_gazetteer": true,
        "type": "City",
        "region": "Skavendom",
        "province": null,
        "estate": null,
        "population": 55000,
        "population_estimated": false,
        "size_category": 6,
        "trade": null,
        "source": "Warhammer Fantasy Roleplay 2e: Children of the Horned Rat",
        "tags": [],
        "notes": [
          "Pestilens (Flem)"
        ],
        "history": {
          "province_2512": null,
          "province_2276": null,
          "ruler_2515": null,
          "ruler_2512": null,
          "ruler_2276": null
        },
        "wiki": {
          "title": "Under-Mousillon",
          "url": "https://warhammerfantasy.fandom.com/wiki/Under-Mousillon",
          "description": "Under-Mousillon is a minor Skaven stronghold held mostly by Clan Pestilens.",
          "image": "https://static.wikia.nocookie.net/warhammerfb/images/c/ce/Mousillon_map.png/revision/latest?cb=20160116014724"
        },
        "svg_layer": "Under-Empire"
      }
    },
    {
      "type": "Feature",
      "id": "text16-2",
      "geometry": {
        "type": "Point",
        "coordinates": [
          -3.385417,
          38.11552
        ]
      },
      "properties": {
        "id": "text16-2",
        "name": "Queekwell",
        "category": "settlement",
        "dataset": "skavendom",
        "in_gazetteer": true,
        "type": "Nest",
        "region": "Skavendom",
        "province": null,
        "estate": null,
        "population": 450,
        "population_estimated": false,
        "size_category": 2,
        "trade": null,
        "source": "Warhammer Fantasy Roleplay 2e: Children of the Horned Rat",
        "tags": [],
        "notes": [
          "Skaar"
        ],
        "history": {
          "province_2512": null,
          "province_2276": null,
          "ruler_2515": null,
          "ruler_2512": null,
          "ruler_2276": null
        },
        "wiki": {
          "title": "Queekwell",
          "url": "https://warhammerfantasy.fandom.com/wiki/Queekwell",
          "description": "Queekwell is a Skaven nest near Clan Skaar 's stronghold, located east of the Tilean city of Pavona, beneath the Apuccini Mountains. It is a small mining village, typical of any Skaven nest that claims allegiance to a nearby stronghold or warren. The sleepy, small town feeling of Queekwell is often interrupted by occasional earthquakes that seem to be centred in the mines themselves.",
          "image": "https://static.wikia.nocookie.net/warhammerfb/images/2/28/Pavona%2C_the_Old_World_map.png/revision/latest?cb=20250417190358"
        },
        "svg_layer": "Under-Empire"
      }
    },
    {
      "type": "Feature",
      "id": "text17-6",
      "geometry": {
        "type": "Point",
        "coordinates": [
          0.906196,
          54.227573
        ]
      },
      "properties": {
        "id": "text17-6",
        "name": "Under-Delberz",
        "category": "settlement",
        "dataset": "skavendom",
        "in_gazetteer": true,
        "type": "City",
        "region": "Skavendom",
        "province": null,
        "estate": null,
        "population": 10000,
        "population_estimated": false,
        "size_category": 4,
        "trade": null,
        "source": "Warhammer Fantasy Roleplay 2e: Children of the Horned Rat",
        "tags": [],
        "notes": [
          "Moulder, Eeshin, Skryre (Mors, Pestilens, Skab, Sleekit, Skaar)"
        ],
        "history": {
          "province_2512": null,
          "province_2276": null,
          "ruler_2515": null,
          "ruler_2512": null,
          "ruler_2276": null
        },
        "wiki": {
          "title": "Delberz",
          "url": "https://warhammerfantasy.fandom.com/wiki/Delberz",
          "description": "Delberz is an important Imperial town and port on the Middenheim-Altdorf Road in Middenland. Situated on the River Delb along the Middenheim-Altdorf Road, Delberz is a prosperous mercantile community well known for the quality of its local wines. Several inns dot the town; some have large stables attached that cater to caravans, while others by the docks offer warehousing services as a sideline.",
          "image": "https://static.wikia.nocookie.net/warhammerfb/images/e/e4/Delberz_map.png/revision/latest?cb=20170519184623"
        },
        "svg_layer": "Under-Empire"
      }
    },
    {
      "type": "Feature",
      "id": "text18-5",
      "geometry": {
        "type": "Point",
        "coordinates": [
          1.460752,
          55.310275
        ]
      },
      "properties": {
        "id": "text18-5",
        "name": "Under-Middenheim",
        "category": "settlement",
        "dataset": "skavendom",
        "in_gazetteer": true,
        "type": "City",
        "region": "Skavendom",
        "province": null,
        "estate": null,
        "population": 25000,
        "population_estimated": false,
        "size_category": 5,
        "trade": null,
        "source": "Warhammer Fantasy Roleplay 2e: Children of the Horned Rat",
        "tags": [],
        "notes": [
          "Scrutens, Pestilens, Moulder (Eshin)"
        ],
        "history": {
          "province_2512": null,
          "province_2276": null,
          "ruler_2515": null,
          "ruler_2512": null,
          "ruler_2276": null
        },
        "wiki": {
          "title": "Under-Middenheim",
          "url": "https://warhammerfantasy.fandom.com/wiki/Under-Middenheim",
          "description": "Under-Middenheim is the hidden city of the Under-Empire beneath Middenheim. It is currently ruled by Warlord Gnawretch Skrray.",
          "image": "https://static.wikia.nocookie.net/warhammerfb/images/6/64/Warhammer_Skaven_Banner.png/revision/latest?cb=20161118023346"
        },
        "svg_layer": "Under-Empire"
      }
    },
    {
      "type": "Feature",
      "id": "text19-6",
      "geometry": {
        "type": "Point",
        "coordinates": [
          2.21801,
          55.241204
        ]
      },
      "properties": {
        "id": "text19-6",
        "name": "Karak Skygg",
        "category": "settlement",
        "dataset": "skavendom",
        "in_gazetteer": true,
        "type": "Warren",
        "region": "Skavendom",
        "province": null,
        "estate": null,
        "population": 1000,
        "population_estimated": false,
        "size_category": 3,
        "trade": null,
        "source": "Warhammer Fantasy Roleplay 4e: The Horned Rat",
        "tags": [],
        "notes": [
          "Skryre (Scrutens)"
        ],
        "history": {
          "province_2512": null,
          "province_2276": null,
          "ruler_2515": null,
          "ruler_2512": null,
          "ruler_2276": null
        },
        "wiki": {
          "title": "Karak Skygg",
          "url": "https://warhammerfantasy.fandom.com/wiki/Karak_Skygg",
          "description": "Karak Skygg is an abandoned Dwarf hold that stands high in the Middle Mountains in the old Dwarfen realm of Karaz Ghumzul. For centuries this hold was home to the mountain folk but was never a major settlement -- perhaps the equivalent of a small Human town or fortress. At some point in the past, for unknown reasons, the Dwarfs of the Middle Mountains abandoned and sealed their holds to return to the Worlds Edge Mountains.",
          "image": "https://static.wikia.nocookie.net/warhammerfb/images/6/68/Horned_Rat_Companion_Middle_Mountains%E2%80%99.png/revision/latest?cb=20230916114706"
        },
        "svg_layer": "Under-Empire"
      }
    },
    {
      "type": "Feature",
      "id": "text20-8",
      "geometry": {
        "type": "Point",
        "coordinates": [
          -2.041666,
          41.011354
        ]
      },
      "properties": {
        "id": "text20-8",
        "name": "Foul Peak",
        "category": "settlement",
        "dataset": "skavendom",
        "in_gazetteer": true,
        "type": "Warren",
        "region": "Skavendom",
        "province": null,
        "estate": null,
        "population": 7500,
        "population_estimated": false,
        "size_category": 4,
        "trade": null,
        "source": "Warhammer Armies: Skaven (4th Edition)",
        "tags": [],
        "notes": [
          "Ektrik (Skryre)"
        ],
        "history": {
          "province_2512": null,
          "province_2276": null,
          "ruler_2515": null,
          "ruler_2512": null,
          "ruler_2276": null
        },
        "wiki": {
          "title": "Foul Peak",
          "url": "https://warhammerfantasy.fandom.com/wiki/Foul_Peak",
          "description": "Foul Peak is an hidden Skaven lair deep in the mountain range of The Vaults near the Tilean Principality of Miragliano. Controlled by Clan Ektrik, here a vast array of machinery connected to arcane lightning conductors sits atop the mountain's summit and hangs from the lair's ceiling. A horde of Warlock-Engineers tend to this array, harnessing the power of the storm-wracked skies, but to what diabolical purpose none can guess, and they will not tell.",
          "image": "https://static.wikia.nocookie.net/warhammerfb/images/c/c9/Monte_Castello_3rd_edition.png/revision/latest?cb=20240719212241"
        },
        "svg_layer": "Under-Empire"
      }
    },
    {
      "type": "Feature",
      "id": "text21-2",
      "geometry": {
        "type": "Point",
        "coordinates": [
          0.080729,
          41.407186
        ]
      },
      "properties": {
        "id": "text21-2",
        "name": "Putrid Stump",
        "category": "settlement",
        "dataset": "skavendom",
        "in_gazetteer": true,
        "type": "Warren",
        "region": "Skavendom",
        "province": null,
        "estate": null,
        "population": 6000,
        "population_estimated": false,
        "size_category": 4,
        "trade": null,
        "source": "Warhammer Armies: Skaven (4th Edition)",
        "tags": [],
        "notes": [],
        "history": {
          "province_2512": null,
          "province_2276": null,
          "ruler_2515": null,
          "ruler_2512": null,
          "ruler_2276": null
        },
        "wiki": {
          "title": "Putrid Stump",
          "url": "https://warhammerfantasy.fandom.com/wiki/Putrid_Stump",
          "description": "Putrid Stump, also known as the Putrid Sump, is one of the three major Skaven lairs, along with Fester Spike and Foul Peak, located within the mountain range of The Vaults. This Skaven lair sits along an important route in the Under-Empire 's main tunnelway. Underground rivers also pass through the area making the lair a major trade hub.",
          "image": "https://static.wikia.nocookie.net/warhammerfb/images/c/c9/Monte_Castello_3rd_edition.png/revision/latest?cb=20240719212241"
        },
        "svg_layer": "Under-Empire"
      }
    },
    {
      "type": "Feature",
      "id": "text22-9",
      "geometry": {
        "type": "Point",
        "coordinates": [
          -0.916667,
          40.386353
        ]
      },
      "properties": {
        "id": "text22-9",
        "name": "Fester Spike",
        "category": "settlement",
        "dataset": "skavendom",
        "in_gazetteer": true,
        "type": "City",
        "region": "Skavendom",
        "province": null,
        "estate": null,
        "population": 20000,
        "population_estimated": false,
        "size_category": 5,
        "trade": null,
        "source": "Warhammer Armies: Skaven (4th Edition)",
        "tags": [],
        "notes": [
          "Fester (Pestilens)"
        ],
        "history": {
          "province_2512": null,
          "province_2276": null,
          "ruler_2515": null,
          "ruler_2512": null,
          "ruler_2276": null
        },
        "wiki": {
          "title": "Fester Spike",
          "url": "https://warhammerfantasy.fandom.com/wiki/Fester_Spike",
          "description": "Fester Spike, also known as Fester Spire, is one of the three major Skaven lairs located within the mountain range of The Vaults, alongside Putrid Stump and Foul Peak. Fester Spike occupies that mountain range's highest peak with tunnels stretching out for hundreds of miles underneath. The stronghold's economy relies on its mines, run by a number of clans holding different sections.",
          "image": "https://static.wikia.nocookie.net/warhammerfb/images/c/c9/Monte_Castello_3rd_edition.png/revision/latest?cb=20240719212241"
        },
        "svg_layer": "Under-Empire"
      }
    },
    {
      "type": "Feature",
      "id": "text23-4",
      "geometry": {
        "type": "Point",
        "coordinates": [
          3.239583,
          37.000935
        ]
      },
      "properties": {
        "id": "text23-4",
        "name": "Blackclaw Lair",
        "category": "settlement",
        "dataset": "skavendom",
        "in_gazetteer": true,
        "type": "Warren",
        "region": "Skavendom",
        "province": null,
        "estate": null,
        "population": 5000,
        "population_estimated": false,
        "size_category": 4,
        "trade": null,
        "source": "Warhammer Armies: Skaven (4th Edition)",
        "tags": [],
        "notes": [
          "Eshin"
        ],
        "history": {
          "province_2512": null,
          "province_2276": null,
          "ruler_2515": null,
          "ruler_2512": null,
          "ruler_2276": null
        },
        "wiki": {
          "title": null,
          "url": null,
          "description": null,
          "image": null
        },
        "svg_layer": "Under-Empire"
      }
    },
    {
      "type": "Feature",
      "id": "text24-1",
      "geometry": {
        "type": "Point",
        "coordinates": [
          -15.281249,
          41.803019
        ]
      },
      "properties": {
        "id": "text24-1",
        "name": "Under-Magritta",
        "category": "settlement",
        "dataset": "skavendom",
        "in_gazetteer": true,
        "type": "Warren",
        "region": "Skavendom",
        "province": null,
        "estate": null,
        "population": 12000,
        "population_estimated": false,
        "size_category": 4,
        "trade": null,
        "source": "Warhammer Fantasy Roleplay 2e: Children of the Horned Rat",
        "tags": [],
        "notes": [],
        "history": {
          "province_2512": null,
          "province_2276": null,
          "ruler_2515": null,
          "ruler_2512": null,
          "ruler_2276": null
        },
        "wiki": {
          "title": "Magritta",
          "url": "https://warhammerfantasy.fandom.com/wiki/Magritta",
          "description": "Magritta, formally the Kingdom of Magritta, is the largest and one of the most important cities in Estalia. Built by natural deep-water harbours within the sheltered Bay of Quietude, its reputation as a friendly port with ready markets for all manner of cargoes draws traders from many ports across the world of Mallus. Its quays are usually crowded, and, among the assortment of Old Worlder merchantmen, one can occasionally catch a glimpse of a strangely rigged craft from Araby or even further afield.",
          "image": "https://static.wikia.nocookie.net/warhammerfb/images/7/7e/Magritta_01-25.png/revision/latest?cb=20250222185935"
        },
        "svg_layer": "Under-Empire"
      }
    },
    {
      "type": "Feature",
      "id": "text25-3",
      "geometry": {
        "type": "Point",
        "coordinates": [
          -9.910156,
          41.085571
        ]
      },
      "properties": {
        "id": "text25-3",
        "name": "Under-Tobaro",
        "category": "settlement",
        "dataset": "skavendom",
        "in_gazetteer": true,
        "type": "Warren",
        "region": "Skavendom",
        "province": null,
        "estate": null,
        "population": 8000,
        "population_estimated": false,
        "size_category": 4,
        "trade": null,
        "source": "Warhammer Fantasy Roleplay 2e: Children of the Horned Rat",
        "tags": [],
        "notes": [
          "Skurvy"
        ],
        "history": {
          "province_2512": null,
          "province_2276": null,
          "ruler_2515": null,
          "ruler_2512": null,
          "ruler_2276": null
        },
        "wiki": {
          "title": "Tobaro",
          "url": "https://warhammerfantasy.fandom.com/wiki/Tobaro",
          "description": "Tobaro, officially the Principality of Tobaro, or Tolarie as it was known to the High Elves, is also called the \" City of Sirens \" or sometimes the \" City of Fools \", and is the only great Tilean city-state on the western shores of the Tilean Sea. The city is also said in some sources, confusingly, to be called \" Vedenza the True \" by those who love her. At Tobaro the narrow coastal plain of Tilea is separated from the arid uplands of Estalia by the Abasko Mountains.",
          "image": "https://static.wikia.nocookie.net/warhammerfb/images/0/03/Tobaro_borders.png/revision/latest?cb=20250123201725"
        },
        "svg_layer": "Under-Empire"
      }
    },
    {
      "type": "Feature",
      "id": "text26-4",
      "geometry": {
        "type": "Point",
        "coordinates": [
          -11.244792,
          37.771771
        ]
      },
      "properties": {
        "id": "text26-4",
        "name": "Spineport",
        "category": "settlement",
        "dataset": "skavendom",
        "in_gazetteer": true,
        "type": "City",
        "region": "Skavendom",
        "province": null,
        "estate": null,
        "population": 45000,
        "population_estimated": false,
        "size_category": 5,
        "trade": null,
        "source": "Warhammer Armies: Skaven (4th Edition)",
        "tags": [],
        "notes": [
          "Skurvy (Rikket, Skuttel)"
        ],
        "history": {
          "province_2512": null,
          "province_2276": null,
          "ruler_2515": null,
          "ruler_2512": null,
          "ruler_2276": null
        },
        "wiki": {
          "title": "Spineport",
          "url": "https://warhammerfantasy.fandom.com/wiki/Spineport",
          "description": "Spineport is a subterranean Skaven port city controlled by Clan Skurvy, located on the eastern coast of Estalia, south of the Tilean city-state of Tobaro.",
          "image": null
        },
        "svg_layer": "Under-Empire"
      }
    },
    {
      "type": "Feature",
      "id": "text27-1",
      "geometry": {
        "type": "Point",
        "coordinates": [
          19.249999,
          39.690854
        ]
      },
      "properties": {
        "id": "text27-1",
        "name": "Crookback Mountain",
        "category": "settlement",
        "dataset": "skavendom",
        "in_gazetteer": true,
        "type": "City",
        "region": "Skavendom",
        "province": null,
        "estate": null,
        "population": 75000,
        "population_estimated": false,
        "size_category": 6,
        "trade": null,
        "source": "Warhammer Armies: Skaven (4th Edition)",
        "tags": [],
        "notes": [
          "Rictus (Moulder, Skryre)"
        ],
        "history": {
          "province_2512": null,
          "province_2276": null,
          "ruler_2515": null,
          "ruler_2512": null,
          "ruler_2276": null
        },
        "wiki": {
          "title": "Crookback Mountain",
          "url": "https://warhammerfantasy.fandom.com/wiki/Crookback_Mountain",
          "description": "Crookback Mountain is the largest Skaven stronghold within the Dark Lands. The mountain lies at the eastern end of Mad Dog Pass, a great spire of black rock thrusting up out of the dusty plain. Crookback Mountain is currently held by Lord of Decay Kratch Doomclaw, leader of one of the most powerful Warlord Clans, Clan Rictus.",
          "image": "https://static.wikia.nocookie.net/warhammerfb/images/0/0d/Warhammer_Crookback_Mountain.png/revision/latest?cb=20170408223412"
        },
        "svg_layer": "Under-Empire"
      }
    },
    {
      "type": "Feature",
      "id": "text28-8",
      "geometry": {
        "type": "Point",
        "coordinates": [
          -2.9375,
          53.625934
        ]
      },
      "properties": {
        "id": "text28-8",
        "name": "Rat Rock",
        "category": "settlement",
        "dataset": "skavendom",
        "in_gazetteer": true,
        "type": "Nest",
        "region": "Skavendom",
        "province": null,
        "estate": null,
        "population": 1000,
        "population_estimated": false,
        "size_category": 3,
        "trade": null,
        "source": "White Dwarf Magazine",
        "tags": [],
        "notes": [
          "Scrutens"
        ],
        "history": {
          "province_2512": null,
          "province_2276": null,
          "ruler_2515": null,
          "ruler_2512": null,
          "ruler_2276": null
        },
        "wiki": {
          "title": null,
          "url": null,
          "description": null,
          "image": null
        },
        "svg_layer": "Under-Empire"
      }
    },
    {
      "type": "Feature",
      "id": "text29-4",
      "geometry": {
        "type": "Point",
        "coordinates": [
          -3.197917,
          53.084268
        ]
      },
      "properties": {
        "id": "text29-4",
        "name": "Bitter Stink",
        "category": "settlement",
        "dataset": "skavendom",
        "in_gazetteer": false,
        "type": null,
        "region": "Skavendom",
        "province": null,
        "estate": null,
        "population": 156,
        "population_estimated": true,
        "size_category": 1,
        "trade": null,
        "source": null,
        "tags": [],
        "notes": [],
        "history": {
          "province_2512": null,
          "province_2276": null,
          "ruler_2515": null,
          "ruler_2512": null,
          "ruler_2276": null
        },
        "wiki": {
          "title": null,
          "url": null,
          "description": null,
          "image": null
        },
        "svg_layer": "Under-Empire"
      }
    },
    {
      "type": "Feature",
      "id": "text30-7",
      "geometry": {
        "type": "Point",
        "coordinates": [
          16.135415,
          57.021768
        ]
      },
      "properties": {
        "id": "text30-7",
        "name": "Seep-Gore",
        "category": "settlement",
        "dataset": "skavendom",
        "in_gazetteer": true,
        "type": "Warren",
        "region": "Skavendom",
        "province": null,
        "estate": null,
        "population": 5000,
        "population_estimated": false,
        "size_category": 4,
        "trade": null,
        "source": "Warhammer Armies: Skaven (4th Edition)",
        "tags": [],
        "notes": [
          "Gritus (Moulder, Rictus)"
        ],
        "history": {
          "province_2512": null,
          "province_2276": null,
          "ruler_2515": null,
          "ruler_2512": null,
          "ruler_2276": null
        },
        "wiki": {
          "title": null,
          "url": null,
          "description": null,
          "image": null
        },
        "svg_layer": "Under-Empire"
      }
    },
    {
      "type": "Feature",
      "id": "text1525",
      "geometry": {
        "type": "Point",
        "coordinates": [
          9.505209,
          46.651977
        ]
      },
      "properties": {
        "id": "text1525",
        "name": "Clan Ferrik Lair",
        "category": "settlement",
        "dataset": "skavendom",
        "in_gazetteer": false,
        "type": null,
        "region": "Skavendom",
        "province": null,
        "estate": null,
        "population": 274,
        "population_estimated": true,
        "size_category": 1,
        "trade": null,
        "source": null,
        "tags": [],
        "notes": [],
        "history": {
          "province_2512": null,
          "province_2276": null,
          "ruler_2515": null,
          "ruler_2512": null,
          "ruler_2276": null
        },
        "wiki": {
          "title": null,
          "url": null,
          "description": null,
          "image": null
        },
        "svg_layer": "Under-Empire"
      }
    },
    {
      "type": "Feature",
      "id": "text1526",
      "geometry": {
        "type": "Point",
        "coordinates": [
          13.934896,
          44.948852
        ]
      },
      "properties": {
        "id": "text1526",
        "name": "Clan Grutnik Lair",
        "category": "settlement",
        "dataset": "skavendom",
        "in_gazetteer": false,
        "type": null,
        "region": "Skavendom",
        "province": null,
        "estate": null,
        "population": 312,
        "population_estimated": true,
        "size_category": 2,
        "trade": null,
        "source": null,
        "tags": [],
        "notes": [],
        "history": {
          "province_2512": null,
          "province_2276": null,
          "ruler_2515": null,
          "ruler_2512": null,
          "ruler_2276": null
        },
        "wiki": {
          "title": null,
          "url": null,
          "description": null,
          "image": null
        },
        "svg_layer": "Under-Empire"
      }
    },
    {
      "type": "Feature",
      "id": "text1528",
      "geometry": {
        "type": "Point",
        "coordinates": [
          15.856772,
          42.95406
        ]
      },
      "properties": {
        "id": "text1528",
        "name": "Glowpit",
        "category": "settlement",
        "dataset": "skavendom",
        "in_gazetteer": false,
        "type": null,
        "region": "Skavendom",
        "province": null,
        "estate": null,
        "population": 127,
        "population_estimated": true,
        "size_category": 1,
        "trade": null,
        "source": null,
        "tags": [],
        "notes": [],
        "history": {
          "province_2512": null,
          "province_2276": null,
          "ruler_2515": null,
          "ruler_2512": null,
          "ruler_2276": null
        },
        "wiki": {
          "title": null,
          "url": null,
          "description": null,
          "image": null
        },
        "svg_layer": "Under-Empire"
      }
    },
    {
      "type": "Feature",
      "id": "text1529",
      "geometry": {
        "type": "Point",
        "coordinates": [
          15.393229,
          40.094685
        ]
      },
      "properties": {
        "id": "text1529",
        "name": "Clan Krizzor Lair",
        "category": "settlement",
        "dataset": "skavendom",
        "in_gazetteer": false,
        "type": null,
        "region": "Skavendom",
        "province": null,
        "estate": null,
        "population": 88,
        "population_estimated": true,
        "size_category": 1,
        "trade": null,
        "source": null,
        "tags": [],
        "notes": [],
        "history": {
          "province_2512": null,
          "province_2276": null,
          "ruler_2515": null,
          "ruler_2512": null,
          "ruler_2276": null
        },
        "wiki": {
          "title": null,
          "url": null,
          "description": null,
          "image": null
        },
        "svg_layer": "Under-Empire"
      }
    },
    {
      "type": "Feature",
      "id": "text820",
      "geometry": {
        "type": "Point",
        "coordinates": [
          14.020062,
          40.087937
        ]
      },
      "properties": {
        "id": "text820",
        "name": "Skullreach Cavern",
        "category": "settlement",
        "dataset": "skavendom",
        "in_gazetteer": false,
        "type": null,
        "region": "Skavendom",
        "province": null,
        "estate": null,
        "population": 83,
        "population_estimated": true,
        "size_category": 1,
        "trade": null,
        "source": null,
        "tags": [],
        "notes": [],
        "history": {
          "province_2512": null,
          "province_2276": null,
          "ruler_2515": null,
          "ruler_2512": null,
          "ruler_2276": null
        },
        "wiki": {
          "title": null,
          "url": null,
          "description": null,
          "image": null
        },
        "svg_layer": "Under-Empire"
      }
    },
    {
      "type": "Feature",
      "id": "text1530",
      "geometry": {
        "type": "Point",
        "coordinates": [
          14.171876,
          35.672811
        ]
      },
      "properties": {
        "id": "text1530",
        "name": "Cavern of Treaty-Pacts",
        "category": "settlement",
        "dataset": "skavendom",
        "in_gazetteer": false,
        "type": null,
        "region": "Skavendom",
        "province": null,
        "estate": null,
        "population": 61,
        "population_estimated": true,
        "size_category": 1,
        "trade": null,
        "source": null,
        "tags": [],
        "notes": [],
        "history": {
          "province_2512": null,
          "province_2276": null,
          "ruler_2515": null,
          "ruler_2512": null,
          "ruler_2276": null
        },
        "wiki": {
          "title": null,
          "url": null,
          "description": null,
          "image": null
        },
        "svg_layer": "Under-Empire"
      }
    },
    {
      "type": "Feature",
      "id": "text1531",
      "geometry": {
        "type": "Point",
        "coordinates": [
          14.302083,
          34.558228
        ]
      },
      "properties": {
        "id": "text1531",
        "name": "Clan Volkn Lair",
        "category": "settlement",
        "dataset": "skavendom",
        "in_gazetteer": false,
        "type": null,
        "region": "Skavendom",
        "province": null,
        "estate": null,
        "population": 113,
        "population_estimated": true,
        "size_category": 1,
        "trade": null,
        "source": null,
        "tags": [],
        "notes": [],
        "history": {
          "province_2512": null,
          "province_2276": null,
          "ruler_2515": null,
          "ruler_2512": null,
          "ruler_2276": null
        },
        "wiki": {
          "title": null,
          "url": null,
          "description": null,
          "image": null
        },
        "svg_layer": "Under-Empire"
      }
    },
    {
      "type": "Feature",
      "id": "text1532",
      "geometry": {
        "type": "Point",
        "coordinates": [
          15.447915,
          33.800415
        ]
      },
      "properties": {
        "id": "text1532",
        "name": "Blackgouge",
        "category": "settlement",
        "dataset": "skavendom",
        "in_gazetteer": false,
        "type": null,
        "region": "Skavendom",
        "province": null,
        "estate": null,
        "population": 206,
        "population_estimated": true,
        "size_category": 1,
        "trade": null,
        "source": null,
        "tags": [],
        "notes": [],
        "history": {
          "province_2512": null,
          "province_2276": null,
          "ruler_2515": null,
          "ruler_2512": null,
          "ruler_2276": null
        },
        "wiki": {
          "title": null,
          "url": null,
          "description": null,
          "image": null
        },
        "svg_layer": "Under-Empire"
      }
    }
  ]
}