{
  "type": "FeatureCollection",
  "name": "settlements_border_princes",
  "schema_version": 2,
  "features": [
    {
      "type": "Feature",
      "id": "copy_text_14652",
      "geometry": {
        "type": "Point",
        "coordinates": [
          -2.595052,
          35.125282
        ]
      },
      "properties": {
        "id": "copy_text_14652",
        "name": "Myrmidens",
        "category": "settlement",
        "dataset": "border_princes",
        "in_gazetteer": true,
        "type": null,
        "region": "Border Princes",
        "province": null,
        "estate": null,
        "population": 23812,
        "population_estimated": false,
        "size_category": 5,
        "trade": null,
        "source": "Warhammer: The Old World",
        "tags": [],
        "notes": [],
        "history": {
          "province_2512": null,
          "province_2276": null,
          "ruler_2515": null,
          "ruler_2512": null,
          "ruler_2276": null
        },
        "wiki": {
          "title": "Myrmidens",
          "url": "https://warhammerfantasy.fandom.com/wiki/Myrmidens",
          "description": "Myrmidens is a raucous Human city located on the Black Peninsula at the mouth of the Lagoon of Tears in the southern Border Princes, originally founded by Tilean exiles from Luccini many years ago. It now serves as a marketplace for mercenaries. The city is a sprawling cliffport and one of the most prominent settlements of the Black Peninsula.",
          "image": "https://static.wikia.nocookie.net/warhammerfb/images/b/b5/Western_Border_Princes.jpg/revision/latest?cb=20210618132855"
        },
        "svg_layer": "Border Princes"
      }
    },
    {
      "type": "Feature",
      "id": "copy_text_14653",
      "geometry": {
        "type": "Point",
        "coordinates": [
          -0.151918,
          37.273198
        ]
      },
      "properties": {
        "id": "copy_text_14653",
        "name": "Kasos",
        "category": "settlement",
        "dataset": "border_princes",
        "in_gazetteer": true,
        "type": null,
        "region": "Border Princes",
        "province": null,
        "estate": null,
        "population": 2355,
        "population_estimated": false,
        "size_category": 3,
        "trade": null,
        "source": "Warhammer: The Old World",
        "tags": [],
        "notes": [],
        "history": {
          "province_2512": null,
          "province_2276": null,
          "ruler_2515": null,
          "ruler_2512": null,
          "ruler_2276": null
        },
        "wiki": {
          "title": "Kasos",
          "url": "https://warhammerfantasy.fandom.com/wiki/Kasos",
          "description": "Kasos, also known as Kásos, is a settlement located in the Border Princes on the Lagoon of Tears. In 2276 IC it was ruled by Baron Oswain Lothar of House Aquilena.",
          "image": "https://static.wikia.nocookie.net/warhammerfb/images/c/c2/Battle_of_Matorea_map.png/revision/latest?cb=20240208092844"
        },
        "svg_layer": "Border Princes"
      }
    },
    {
      "type": "Feature",
      "id": "copy_text_14654",
      "geometry": {
        "type": "Point",
        "coordinates": [
          -0.954088,
          36.980412
        ]
      },
      "properties": {
        "id": "copy_text_14654",
        "name": "Vardanos",
        "category": "settlement",
        "dataset": "border_princes",
        "in_gazetteer": true,
        "type": null,
        "region": "Border Princes",
        "province": null,
        "estate": null,
        "population": 1412,
        "population_estimated": false,
        "size_category": 3,
        "trade": null,
        "source": "Warhammer: The Old World",
        "tags": [],
        "notes": [],
        "history": {
          "province_2512": null,
          "province_2276": null,
          "ruler_2515": null,
          "ruler_2512": null,
          "ruler_2276": null
        },
        "wiki": {
          "title": null,
          "url": null,
          "description": null,
          "image": null
        },
        "svg_layer": "Border Princes"
      }
    },
    {
      "type": "Feature",
      "id": "copy_text_14655",
      "geometry": {
        "type": "Point",
        "coordinates": [
          -4.419759,
          35.332316
        ]
      },
      "properties": {
        "id": "copy_text_14655",
        "name": "Argalis",
        "category": "settlement",
        "dataset": "border_princes",
        "in_gazetteer": true,
        "type": null,
        "region": "Border Princes",
        "province": null,
        "estate": null,
        "population": 489,
        "population_estimated": false,
        "size_category": 2,
        "trade": null,
        "source": "Warhammer: The Old World",
        "tags": [],
        "notes": [],
        "history": {
          "province_2512": null,
          "province_2276": null,
          "ruler_2515": null,
          "ruler_2512": null,
          "ruler_2276": null
        },
        "wiki": {
          "title": "Argalis",
          "url": "https://warhammerfantasy.fandom.com/wiki/Argalis",
          "description": "Argalis, known in Tilean as Argalide, is a lonely, palisaded settlement located near the brooding Kharnos Forest on the Border Princes ' south-western coast west of the Bay of Wrecks, a densely wooded hinterland that concealed all manner of fell beasts and evil men. The settlement is very old by the standards of the Border Princes.",
          "image": null
        },
        "svg_layer": "Border Princes"
      }
    },
    {
      "type": "Feature",
      "id": "copy_text_14656",
      "geometry": {
        "type": "Point",
        "coordinates": [
          2.733364,
          39.692827
        ]
      },
      "properties": {
        "id": "copy_text_14656",
        "name": "Khypris",
        "category": "settlement",
        "dataset": "border_princes",
        "in_gazetteer": true,
        "type": null,
        "region": "Border Princes",
        "province": null,
        "estate": null,
        "population": 3192,
        "population_estimated": false,
        "size_category": 4,
        "trade": null,
        "source": "Warhammer: The Old World",
        "tags": [],
        "notes": [],
        "history": {
          "province_2512": null,
          "province_2276": null,
          "ruler_2515": null,
          "ruler_2512": null,
          "ruler_2276": null
        },
        "wiki": {
          "title": "Khypris",
          "url": "https://warhammerfantasy.fandom.com/wiki/Khypris",
          "description": "Khypris, also known as Khypria, is the capital of the small Khyprian empire in the Border Princes, which stretches from the Black Mountains along the Tana Dante river, and comprises three provinces: the Northern Lands, the Western Lands, and Central Territory. In addition to Khypris, the Prince also controls various settlements and towns such as Cabanal, Aldium, Alynda, the village of Vimera, and the large town of Mentreba. It is currently governed by Prince Harmis Detz.",
          "image": "https://static.wikia.nocookie.net/warhammerfb/images/a/aa/Map_of_the_Khyprian_empire.jpg/revision/latest?cb=20210920124256"
        },
        "svg_layer": "Border Princes"
      }
    },
    {
      "type": "Feature",
      "id": "copy_text_14657",
      "geometry": {
        "type": "Point",
        "coordinates": [
          2.629786,
          39.900911
        ]
      },
      "properties": {
        "id": "copy_text_14657",
        "name": "Cabanal",
        "category": "settlement",
        "dataset": "border_princes",
        "in_gazetteer": true,
        "type": null,
        "region": "Border Princes",
        "province": null,
        "estate": null,
        "population": 77,
        "population_estimated": true,
        "size_category": 1,
        "trade": null,
        "source": "Alfred \"MadAlfred\" Nuñez Jr. (unofficial)",
        "tags": [],
        "notes": [],
        "history": {
          "province_2512": null,
          "province_2276": null,
          "ruler_2515": null,
          "ruler_2512": null,
          "ruler_2276": null
        },
        "wiki": {
          "title": null,
          "url": null,
          "description": null,
          "image": null
        },
        "svg_layer": "Border Princes"
      }
    },
    {
      "type": "Feature",
      "id": "copy_text_14658",
      "geometry": {
        "type": "Point",
        "coordinates": [
          2.609432,
          39.689699
        ]
      },
      "properties": {
        "id": "copy_text_14658",
        "name": "Alynda",
        "category": "settlement",
        "dataset": "border_princes",
        "in_gazetteer": false,
        "type": null,
        "region": "Border Princes",
        "province": null,
        "estate": null,
        "population": 228,
        "population_estimated": true,
        "size_category": 1,
        "trade": null,
        "source": null,
        "tags": [],
        "notes": [],
        "history": {
          "province_2512": null,
          "province_2276": null,
          "ruler_2515": null,
          "ruler_2512": null,
          "ruler_2276": null
        },
        "wiki": {
          "title": null,
          "url": null,
          "description": null,
          "image": null
        },
        "svg_layer": "Border Princes"
      }
    },
    {
      "type": "Feature",
      "id": "copy_text_14659",
      "geometry": {
        "type": "Point",
        "coordinates": [
          4.470214,
          40.377889
        ]
      },
      "properties": {
        "id": "copy_text_14659",
        "name": "Malko",
        "category": "settlement",
        "dataset": "border_princes",
        "in_gazetteer": true,
        "type": null,
        "region": "Border Princes",
        "province": null,
        "estate": null,
        "population": 319,
        "population_estimated": true,
        "size_category": 2,
        "trade": null,
        "source": "Warhammer: The Old World",
        "tags": [],
        "notes": [],
        "history": {
          "province_2512": null,
          "province_2276": null,
          "ruler_2515": null,
          "ruler_2512": null,
          "ruler_2276": null
        },
        "wiki": {
          "title": "Malko",
          "url": "https://warhammerfantasy.fandom.com/wiki/Malko",
          "description": "Malko is a fortified city of the Border Princes. It is a large settlement by the standards of the Border Princes, and relatively prosperous. Its prosperity is largely the result of its location in an especially fertile area within the region, so that a few agricultural towns can be found surrounding and feeding the fortified city.",
          "image": "https://static.wikia.nocookie.net/warhammerfb/images/f/f1/Border_princes_Map_2200_CA.jpg/revision/latest?cb=20211007192107"
        },
        "svg_layer": "Border Princes"
      }
    },
    {
      "type": "Feature",
      "id": "copy_text_14660",
      "geometry": {
        "type": "Point",
        "coordinates": [
          4.757487,
          40.710569
        ]
      },
      "properties": {
        "id": "copy_text_14660",
        "name": "Vidovdan",
        "category": "settlement",
        "dataset": "border_princes",
        "in_gazetteer": true,
        "type": null,
        "region": "Border Princes",
        "province": null,
        "estate": null,
        "population": 71,
        "population_estimated": true,
        "size_category": 1,
        "trade": null,
        "source": "Warhammer Fantasy Roleplay 1e: Death's Dark Shadow",
        "tags": [],
        "notes": [],
        "history": {
          "province_2512": null,
          "province_2276": null,
          "ruler_2515": null,
          "ruler_2512": null,
          "ruler_2276": null
        },
        "wiki": {
          "title": null,
          "url": null,
          "description": null,
          "image": null
        },
        "svg_layer": "Border Princes"
      }
    },
    {
      "type": "Feature",
      "id": "copy_text_14661",
      "geometry": {
        "type": "Point",
        "coordinates": [
          2.85319,
          39.213177
        ]
      },
      "properties": {
        "id": "copy_text_14661",
        "name": "Matorca",
        "category": "settlement",
        "dataset": "border_princes",
        "in_gazetteer": true,
        "type": null,
        "region": "Border Princes",
        "province": null,
        "estate": null,
        "population": 1201,
        "population_estimated": false,
        "size_category": 3,
        "trade": null,
        "source": "Warhammer: The Old World",
        "tags": [],
        "notes": [],
        "history": {
          "province_2512": null,
          "province_2276": null,
          "ruler_2515": null,
          "ruler_2512": null,
          "ruler_2276": null
        },
        "wiki": {
          "title": "Matorea",
          "url": "https://warhammerfantasy.fandom.com/wiki/Matorea",
          "description": "Matorea, formally the Principality of Matorea, also known as Matorca, is a port city rich in salt located on the Black Gulf in the eastern Border Princes south of the city of Akendorf.",
          "image": "https://static.wikia.nocookie.net/warhammerfb/images/f/f1/Border_princes_Map_2200_CA.jpg/revision/latest?cb=20211007192107"
        },
        "svg_layer": "Border Princes"
      }
    },
    {
      "type": "Feature",
      "id": "copy_text_14662",
      "geometry": {
        "type": "Point",
        "coordinates": [
          0.320638,
          37.752235
        ]
      },
      "properties": {
        "id": "copy_text_14662",
        "name": "Thessos",
        "category": "settlement",
        "dataset": "border_princes",
        "in_gazetteer": true,
        "type": null,
        "region": "Border Princes",
        "province": null,
        "estate": null,
        "population": 3102,
        "population_estimated": false,
        "size_category": 4,
        "trade": null,
        "source": "Warhammer: The Old World",
        "tags": [],
        "notes": [],
        "history": {
          "province_2512": null,
          "province_2276": null,
          "ruler_2515": null,
          "ruler_2512": null,
          "ruler_2276": null
        },
        "wiki": {
          "title": "Thessos",
          "url": "https://warhammerfantasy.fandom.com/wiki/Thessos",
          "description": "Thessos is a settlement of the Border Princes in the northern Black Peninsula. In 2276 IC it was ruled by Baron Oswain Lothar of House Aquilena. Lying on the River Road, Thessos occupies a key junction within the trade network that runs through the Kharnos Forest toward the Dwarf hold of Karak Grom, and the city of Lakoras in the Border Princes, serving as an inland hub where river traffic and caravan routes intersect.",
          "image": "https://static.wikia.nocookie.net/warhammerfb/images/c/c2/Battle_of_Matorea_map.png/revision/latest?cb=20240208092844"
        },
        "svg_layer": "Border Princes"
      }
    },
    {
      "type": "Feature",
      "id": "copy_text_14663",
      "geometry": {
        "type": "Point",
        "coordinates": [
          0.07487,
          38.137654
        ]
      },
      "properties": {
        "id": "copy_text_14663",
        "name": "Zvörak",
        "category": "settlement",
        "dataset": "border_princes",
        "in_gazetteer": true,
        "type": null,
        "region": "Border Princes",
        "province": null,
        "estate": null,
        "population": 11304,
        "population_estimated": false,
        "size_category": 4,
        "trade": null,
        "source": "Warhammer: The Old World",
        "tags": [],
        "notes": [],
        "history": {
          "province_2512": null,
          "province_2276": null,
          "ruler_2515": null,
          "ruler_2512": null,
          "ruler_2276": null
        },
        "wiki": {
          "title": "Zvörak",
          "url": "https://warhammerfantasy.fandom.com/wiki/Zv%C3%B6rak",
          "description": "Zvörak, also known as Zvorak, is an ancient walled town of the Border Princes which stands where the Old Dwarf Road from the Apuccini Mountains in the west meets the Old Silk Road to the east. The town bustles with merchants and mercenaries and is renowned for its reserves of marble.",
          "image": null
        },
        "svg_layer": "Border Princes"
      }
    },
    {
      "type": "Feature",
      "id": "copy_text_14664",
      "geometry": {
        "type": "Point",
        "coordinates": [
          -1.111213,
          38.356251
        ]
      },
      "properties": {
        "id": "copy_text_14664",
        "name": "Vernissi",
        "category": "settlement",
        "dataset": "border_princes",
        "in_gazetteer": true,
        "type": null,
        "region": "Border Princes",
        "province": null,
        "estate": null,
        "population": 243,
        "population_estimated": true,
        "size_category": 1,
        "trade": null,
        "source": "Warhammer: The Old World",
        "tags": [],
        "notes": [],
        "history": {
          "province_2512": null,
          "province_2276": null,
          "ruler_2515": null,
          "ruler_2512": null,
          "ruler_2276": null
        },
        "wiki": {
          "title": null,
          "url": null,
          "description": null,
          "image": null
        },
        "svg_layer": "Border Princes"
      }
    },
    {
      "type": "Feature",
      "id": "copy_text_14665",
      "geometry": {
        "type": "Point",
        "coordinates": [
          8.302521,
          40.282085
        ]
      },
      "properties": {
        "id": "copy_text_14665",
        "name": "Klossi",
        "category": "settlement",
        "dataset": "border_princes",
        "in_gazetteer": true,
        "type": null,
        "region": "Border Princes",
        "province": null,
        "estate": null,
        "population": 224,
        "population_estimated": true,
        "size_category": 1,
        "trade": null,
        "source": "Warhammer: The Old World",
        "tags": [],
        "notes": [],
        "history": {
          "province_2512": null,
          "province_2276": null,
          "ruler_2515": null,
          "ruler_2512": null,
          "ruler_2276": null
        },
        "wiki": {
          "title": null,
          "url": null,
          "description": null,
          "image": null
        },
        "svg_layer": "Border Princes"
      }
    },
    {
      "type": "Feature",
      "id": "copy_text_14666",
      "geometry": {
        "type": "Point",
        "coordinates": [
          7.562269,
          41.084946
        ]
      },
      "properties": {
        "id": "copy_text_14666",
        "name": "Brovska",
        "category": "settlement",
        "dataset": "border_princes",
        "in_gazetteer": true,
        "type": null,
        "region": "Border Princes",
        "province": null,
        "estate": null,
        "population": 289,
        "population_estimated": true,
        "size_category": 1,
        "trade": null,
        "source": "Warhammer: The Old World",
        "tags": [],
        "notes": [],
        "history": {
          "province_2512": null,
          "province_2276": null,
          "ruler_2515": null,
          "ruler_2512": null,
          "ruler_2276": null
        },
        "wiki": {
          "title": null,
          "url": null,
          "description": null,
          "image": null
        },
        "svg_layer": "Border Princes"
      }
    },
    {
      "type": "Feature",
      "id": "copy_text_14667",
      "geometry": {
        "type": "Point",
        "coordinates": [
          7.425543,
          42.11246
        ]
      },
      "properties": {
        "id": "copy_text_14667",
        "name": "Styratia",
        "category": "settlement",
        "dataset": "border_princes",
        "in_gazetteer": true,
        "type": null,
        "region": "Border Princes",
        "province": null,
        "estate": null,
        "population": 129,
        "population_estimated": true,
        "size_category": 1,
        "trade": null,
        "source": "Warhammer: The Old World",
        "tags": [],
        "notes": [],
        "history": {
          "province_2512": null,
          "province_2276": null,
          "ruler_2515": null,
          "ruler_2512": null,
          "ruler_2276": null
        },
        "wiki": {
          "title": null,
          "url": null,
          "description": null,
          "image": null
        },
        "svg_layer": "Border Princes"
      }
    },
    {
      "type": "Feature",
      "id": "copy_text_14668",
      "geometry": {
        "type": "Point",
        "coordinates": [
          9.077252,
          43.257359
        ]
      },
      "properties": {
        "id": "copy_text_14668",
        "name": "Munzig",
        "category": "settlement",
        "dataset": "border_princes",
        "in_gazetteer": true,
        "type": null,
        "region": "Border Princes",
        "province": null,
        "estate": null,
        "population": 84,
        "population_estimated": true,
        "size_category": 1,
        "trade": null,
        "source": "Warhammer: The Old World",
        "tags": [],
        "notes": [],
        "history": {
          "province_2512": null,
          "province_2276": null,
          "ruler_2515": null,
          "ruler_2512": null,
          "ruler_2276": null
        },
        "wiki": {
          "title": "Munzig",
          "url": "https://warhammerfantasy.fandom.com/wiki/Munzig",
          "description": "Munzig is a walled city on the southern slope of the Black Mountains in the Border Princes. Although it lies on the south side of Black Fire Pass, The Empire claims the town to be under its sovereignty. However, the population vehemently reject this claim, and the Imperial government seems to exercise little authority over it.",
          "image": "https://static.wikia.nocookie.net/warhammerfb/images/c/ca/Munzig.png/revision/latest?cb=20180614181936"
        },
        "svg_layer": "Border Princes"
      }
    },
    {
      "type": "Feature",
      "id": "copy_text_14669",
      "geometry": {
        "type": "Point",
        "coordinates": [
          9.228637,
          43.362013
        ]
      },
      "properties": {
        "id": "copy_text_14669",
        "name": "Akendorf",
        "category": "settlement",
        "dataset": "border_princes",
        "in_gazetteer": true,
        "type": null,
        "region": "Border Princes",
        "province": null,
        "estate": null,
        "population": 4311,
        "population_estimated": false,
        "size_category": 4,
        "trade": null,
        "source": "Warhammer: The Old World",
        "tags": [],
        "notes": [],
        "history": {
          "province_2512": null,
          "province_2276": null,
          "ruler_2515": null,
          "ruler_2512": null,
          "ruler_2276": null
        },
        "wiki": {
          "title": "Akendorf",
          "url": "https://warhammerfantasy.fandom.com/wiki/Akendorf",
          "description": "Akendorf, formally the Friest of Akendrof, is one of the larger towns in the Border Princes, located near the southern entrance of Black Fire Pass, to the west of the Thunder River. The current ruler is Lord Durant, who succeeded Prince Rillian, kin of Prince Artilli Levrellian, another of the rulers of the Border Princes with his capital at Zenres. Though Levrellian never much liked Rillian, he gifted him Akendorf as a favour to their mutual aunt.",
          "image": "https://static.wikia.nocookie.net/warhammerfb/images/a/ad/Warhammer_Black_Mountains.png/revision/latest?cb=20170408202909"
        },
        "svg_layer": "Border Princes"
      }
    },
    {
      "type": "Feature",
      "id": "copy_text_14670",
      "geometry": {
        "type": "Point",
        "coordinates": [
          10.985817,
          40.763054
        ]
      },
      "properties": {
        "id": "copy_text_14670",
        "name": "Zenres",
        "category": "settlement",
        "dataset": "border_princes",
        "in_gazetteer": true,
        "type": null,
        "region": "Border Princes",
        "province": null,
        "estate": null,
        "population": 3110,
        "population_estimated": false,
        "size_category": 4,
        "trade": null,
        "source": "Warhammer: The Old World",
        "tags": [],
        "notes": [],
        "history": {
          "province_2512": null,
          "province_2276": null,
          "ruler_2515": null,
          "ruler_2512": null,
          "ruler_2276": null
        },
        "wiki": {
          "title": null,
          "url": null,
          "description": null,
          "image": null
        },
        "svg_layer": "Border Princes"
      }
    },
    {
      "type": "Feature",
      "id": "copy_text_14671",
      "geometry": {
        "type": "Point",
        "coordinates": [
          10.63578,
          39.830009
        ]
      },
      "properties": {
        "id": "copy_text_14671",
        "name": "Mirstadt",
        "category": "settlement",
        "dataset": "border_princes",
        "in_gazetteer": true,
        "type": null,
        "region": "Border Princes",
        "province": null,
        "estate": null,
        "population": 135,
        "population_estimated": true,
        "size_category": 1,
        "trade": null,
        "source": "Warhammer: The Old World",
        "tags": [],
        "notes": [],
        "history": {
          "province_2512": null,
          "province_2276": null,
          "ruler_2515": null,
          "ruler_2512": null,
          "ruler_2276": null
        },
        "wiki": {
          "title": null,
          "url": null,
          "description": null,
          "image": null
        },
        "svg_layer": "Border Princes"
      }
    },
    {
      "type": "Feature",
      "id": "copy_text_14672",
      "geometry": {
        "type": "Point",
        "coordinates": [
          11.482286,
          40.368239
        ]
      },
      "properties": {
        "id": "copy_text_14672",
        "name": "Vitrolle",
        "category": "settlement",
        "dataset": "border_princes",
        "in_gazetteer": true,
        "type": null,
        "region": "Border Princes",
        "province": null,
        "estate": null,
        "population": 655,
        "population_estimated": false,
        "size_category": 2,
        "trade": null,
        "source": "Warhammer Fantasy Roleplay 2e: Lure of the Liche Lord",
        "tags": [],
        "notes": [],
        "history": {
          "province_2512": null,
          "province_2276": null,
          "ruler_2515": null,
          "ruler_2512": null,
          "ruler_2276": null
        },
        "wiki": {
          "title": "Vitrolle",
          "url": "https://warhammerfantasy.fandom.com/wiki/Vitrolle",
          "description": "The Howling River ’s two major branches (after the two northern flows from the mountains coalesce) flow down channels on either side of a wide, triangular patch of land. At its western tip, where those two channels merge into a single river, stands the town of Vitrolle.",
          "image": "https://static.wikia.nocookie.net/warhammerfb/images/e/e2/The_Land_Surrounding_Karitamen%27s_Tomb_%28Border_Princes%29.png/revision/latest?cb=20231230145452"
        },
        "svg_layer": "Border Princes"
      }
    },
    {
      "type": "Feature",
      "id": "copy_text_14673",
      "geometry": {
        "type": "Point",
        "coordinates": [
          11.883221,
          40.744918
        ]
      },
      "properties": {
        "id": "copy_text_14673",
        "name": "Fatanbad",
        "category": "settlement",
        "dataset": "border_princes",
        "in_gazetteer": true,
        "type": null,
        "region": "Border Princes",
        "province": null,
        "estate": null,
        "population": 165,
        "population_estimated": true,
        "size_category": 1,
        "trade": null,
        "source": "Warhammer Fantasy Roleplay 2e: Lure of the Liche Lord",
        "tags": [],
        "notes": [],
        "history": {
          "province_2512": null,
          "province_2276": null,
          "ruler_2515": null,
          "ruler_2512": null,
          "ruler_2276": null
        },
        "wiki": {
          "title": null,
          "url": null,
          "description": null,
          "image": null
        },
        "svg_layer": "Border Princes"
      }
    },
    {
      "type": "Feature",
      "id": "copy_text_14674",
      "geometry": {
        "type": "Point",
        "coordinates": [
          3.194784,
          40.00163
        ]
      },
      "properties": {
        "id": "copy_text_14674",
        "name": "Mentrenda",
        "category": "settlement",
        "dataset": "border_princes",
        "in_gazetteer": true,
        "type": null,
        "region": "Border Princes",
        "province": null,
        "estate": null,
        "population": 1820,
        "population_estimated": false,
        "size_category": 3,
        "trade": null,
        "source": "Plague Daemon (Novel) by Brian Craig",
        "tags": [],
        "notes": [],
        "history": {
          "province_2512": null,
          "province_2276": null,
          "ruler_2515": null,
          "ruler_2512": null,
          "ruler_2276": null
        },
        "wiki": {
          "title": null,
          "url": null,
          "description": null,
          "image": null
        },
        "svg_layer": "Border Princes"
      }
    },
    {
      "type": "Feature",
      "id": "copy_text_14675",
      "geometry": {
        "type": "Point",
        "coordinates": [
          2.09961,
          40.381145
        ]
      },
      "properties": {
        "id": "copy_text_14675",
        "name": "Heldegrad",
        "category": "settlement",
        "dataset": "border_princes",
        "in_gazetteer": true,
        "type": null,
        "region": "Border Princes",
        "province": null,
        "estate": null,
        "population": 144,
        "population_estimated": true,
        "size_category": 1,
        "trade": null,
        "source": "Alfred \"MadAlfred\" Nuñez Jr. (unofficial)",
        "tags": [],
        "notes": [],
        "history": {
          "province_2512": null,
          "province_2276": null,
          "ruler_2515": null,
          "ruler_2512": null,
          "ruler_2276": null
        },
        "wiki": {
          "title": null,
          "url": null,
          "description": null,
          "image": null
        },
        "svg_layer": "Border Princes"
      }
    },
    {
      "type": "Feature",
      "id": "copy_text_14676",
      "geometry": {
        "type": "Point",
        "coordinates": [
          2.657898,
          41.144484
        ]
      },
      "properties": {
        "id": "copy_text_14676",
        "name": "Mortensholm",
        "category": "settlement",
        "dataset": "border_princes",
        "in_gazetteer": true,
        "type": null,
        "region": "Border Princes",
        "province": null,
        "estate": null,
        "population": 556,
        "population_estimated": true,
        "size_category": 2,
        "trade": null,
        "source": "Warhammer Fantasy Roleplay 1e: Death's Dark Shadow",
        "tags": [],
        "notes": [],
        "history": {
          "province_2512": null,
          "province_2276": null,
          "ruler_2515": null,
          "ruler_2512": null,
          "ruler_2276": null
        },
        "wiki": {
          "title": "Mortensholm",
          "url": "https://warhammerfantasy.fandom.com/wiki/Mortensholm",
          "description": "Mortensholm is a city-state in the Border Princes near the mountain range of The Vaults. Although the Border Princes are in a permanent state of change, during the last years and decades the colonisation of the area has increased; though far from completely pacified, the wild lands of the Border Princes now boast a handful of thriving city-states. The Free City of Mortensholm is one of these fortified settlements, situated on the road that comes from the Winter's Teeth Pass, once it leaves the mountains.",
          "image": "https://static.wikia.nocookie.net/warhammerfb/images/d/d9/River_of_Echoes_v2.png/revision/latest?cb=20210430091213"
        },
        "svg_layer": "Border Princes"
      }
    },
    {
      "type": "Feature",
      "id": "copy_text_14677",
      "geometry": {
        "type": "Point",
        "coordinates": [
          4.619141,
          39.467648
        ]
      },
      "properties": {
        "id": "copy_text_14677",
        "name": "Somjek",
        "category": "settlement",
        "dataset": "border_princes",
        "in_gazetteer": true,
        "type": null,
        "region": "Border Princes",
        "province": null,
        "estate": null,
        "population": 154,
        "population_estimated": true,
        "size_category": 1,
        "trade": null,
        "source": "Warhammer Fantasy Roleplay 1e: Death's Dark Shadow",
        "tags": [],
        "notes": [],
        "history": {
          "province_2512": null,
          "province_2276": null,
          "ruler_2515": null,
          "ruler_2512": null,
          "ruler_2276": null
        },
        "wiki": {
          "title": null,
          "url": null,
          "description": null,
          "image": null
        },
        "svg_layer": "Border Princes"
      }
    },
    {
      "type": "Feature",
      "id": "copy_text_14678",
      "geometry": {
        "type": "Point",
        "coordinates": [
          4.620769,
          39.706662
        ]
      },
      "properties": {
        "id": "copy_text_14678",
        "name": "Brasov",
        "category": "settlement",
        "dataset": "border_princes",
        "in_gazetteer": true,
        "type": null,
        "region": "Border Princes",
        "province": null,
        "estate": null,
        "population": 81,
        "population_estimated": true,
        "size_category": 1,
        "trade": null,
        "source": "Warhammer Fantasy Roleplay 1e: Death's Dark Shadow",
        "tags": [],
        "notes": [],
        "history": {
          "province_2512": null,
          "province_2276": null,
          "ruler_2515": null,
          "ruler_2512": null,
          "ruler_2276": null
        },
        "wiki": {
          "title": null,
          "url": null,
          "description": null,
          "image": null
        },
        "svg_layer": "Border Princes"
      }
    },
    {
      "type": "Feature",
      "id": "copy_text_14679",
      "geometry": {
        "type": "Point",
        "coordinates": [
          4.240883,
          40.428873
        ]
      },
      "properties": {
        "id": "copy_text_14679",
        "name": "Moslac",
        "category": "settlement",
        "dataset": "border_princes",
        "in_gazetteer": true,
        "type": null,
        "region": "Border Princes",
        "province": null,
        "estate": null,
        "population": 123,
        "population_estimated": true,
        "size_category": 1,
        "trade": null,
        "source": "Warhammer Fantasy Roleplay 1e: Death's Dark Shadow",
        "tags": [],
        "notes": [],
        "history": {
          "province_2512": null,
          "province_2276": null,
          "ruler_2515": null,
          "ruler_2512": null,
          "ruler_2276": null
        },
        "wiki": {
          "title": null,
          "url": null,
          "description": null,
          "image": null
        },
        "svg_layer": "Border Princes"
      }
    },
    {
      "type": "Feature",
      "id": "copy_text_14680",
      "geometry": {
        "type": "Point",
        "coordinates": [
          -0.292969,
          38.31213
        ]
      },
      "properties": {
        "id": "copy_text_14680",
        "name": "Lakoras",
        "category": "settlement",
        "dataset": "border_princes",
        "in_gazetteer": true,
        "type": null,
        "region": "Border Princes",
        "province": null,
        "estate": null,
        "population": 877,
        "population_estimated": false,
        "size_category": 2,
        "trade": null,
        "source": "Warhammer Fantasy Roleplay 1e: Death's Dark Shadow",
        "tags": [],
        "notes": [],
        "history": {
          "province_2512": null,
          "province_2276": null,
          "ruler_2515": null,
          "ruler_2512": null,
          "ruler_2276": null
        },
        "wiki": {
          "title": "Lakoras",
          "url": "https://warhammerfantasy.fandom.com/wiki/Lakoras",
          "description": "Lakoras is a town of the north-eastern Border Princes linked to Tilea by the Old Dwarf Pass, a mountain pass set between the peaks of The Vaults and the Apuccini Mountains. Lying on the River Road, Lakoras occupies a key junction within the trade network that runs through the Kharnos Forest toward the Dwarf hold of Karak Grom, and the city of Thessos in the Border Princes, serving as an inland hub where river traffic and caravan routes intersect. The Kharnos Forest is a region notorious for its haunted reputation and the constant threat of banditry and Orc incursions, where dense woodland and winding valleys make the surrounding roads especially vulnerable to ambush, forcing caravans to proceed with constant caution.",
          "image": null
        },
        "svg_layer": "Border Princes"
      }
    },
    {
      "type": "Feature",
      "id": "copy_text_14681",
      "geometry": {
        "type": "Point",
        "coordinates": [
          0.234375,
          38.879841
        ]
      },
      "properties": {
        "id": "copy_text_14681",
        "name": "Arnalos",
        "category": "settlement",
        "dataset": "border_princes",
        "in_gazetteer": true,
        "type": null,
        "region": "Border Princes",
        "province": null,
        "estate": null,
        "population": 73,
        "population_estimated": true,
        "size_category": 1,
        "trade": null,
        "source": "Alfred \"MadAlfred\" Nuñez Jr. (unofficial)",
        "tags": [],
        "notes": [],
        "history": {
          "province_2512": null,
          "province_2276": null,
          "ruler_2515": null,
          "ruler_2512": null,
          "ruler_2276": null
        },
        "wiki": {
          "title": null,
          "url": null,
          "description": null,
          "image": null
        },
        "svg_layer": "Border Princes"
      }
    },
    {
      "type": "Feature",
      "id": "text76",
      "geometry": {
        "type": "Point",
        "coordinates": [
          8.399548,
          43.695028
        ]
      },
      "properties": {
        "id": "text76",
        "name": "Bergdorf",
        "category": "settlement",
        "dataset": "border_princes",
        "in_gazetteer": false,
        "type": null,
        "region": "Border Princes",
        "province": null,
        "estate": null,
        "population": 176,
        "population_estimated": true,
        "size_category": 1,
        "trade": null,
        "source": null,
        "tags": [],
        "notes": [],
        "history": {
          "province_2512": null,
          "province_2276": null,
          "ruler_2515": null,
          "ruler_2512": null,
          "ruler_2276": null
        },
        "wiki": {
          "title": null,
          "url": null,
          "description": null,
          "image": null
        },
        "svg_layer": "Border Princes"
      }
    },
    {
      "type": "Feature",
      "id": "text2166",
      "geometry": {
        "type": "Point",
        "coordinates": [
          1.604111,
          38.216275
        ]
      },
      "properties": {
        "id": "text2166",
        "name": "Achaes",
        "category": "settlement",
        "dataset": "border_princes",
        "in_gazetteer": true,
        "type": null,
        "region": "Border Princes",
        "province": null,
        "estate": null,
        "population": 146,
        "population_estimated": true,
        "size_category": 1,
        "trade": null,
        "source": "Warhammer Fantasy Roleplay 1e: Death's Dark Shadow",
        "tags": [],
        "notes": [],
        "history": {
          "province_2512": null,
          "province_2276": null,
          "ruler_2515": null,
          "ruler_2512": null,
          "ruler_2276": null
        },
        "wiki": {
          "title": null,
          "url": null,
          "description": null,
          "image": null
        },
        "svg_layer": "Border Princes"
      }
    },
    {
      "type": "Feature",
      "id": "text2166-7",
      "geometry": {
        "type": "Point",
        "coordinates": [
          2.93921,
          41.328139
        ]
      },
      "properties": {
        "id": "text2166-7",
        "name": "Aldium",
        "category": "settlement",
        "dataset": "border_princes",
        "in_gazetteer": false,
        "type": null,
        "region": "Border Princes",
        "province": null,
        "estate": null,
        "population": 218,
        "population_estimated": true,
        "size_category": 1,
        "trade": null,
        "source": null,
        "tags": [],
        "notes": [],
        "history": {
          "province_2512": null,
          "province_2276": null,
          "ruler_2515": null,
          "ruler_2512": null,
          "ruler_2276": null
        },
        "wiki": {
          "title": null,
          "url": null,
          "description": null,
          "image": null
        },
        "svg_layer": "Border Princes"
      }
    },
    {
      "type": "Feature",
      "id": "text2168",
      "geometry": {
        "type": "Point",
        "coordinates": [
          11.871659,
          43.622427
        ]
      },
      "properties": {
        "id": "text2168",
        "name": "Ulfraya",
        "category": "settlement",
        "dataset": "border_princes",
        "in_gazetteer": true,
        "type": null,
        "region": "Border Princes",
        "province": null,
        "estate": null,
        "population": 116,
        "population_estimated": true,
        "size_category": 1,
        "trade": null,
        "source": "Warhammer: The Old World",
        "tags": [],
        "notes": [],
        "history": {
          "province_2512": null,
          "province_2276": null,
          "ruler_2515": null,
          "ruler_2512": null,
          "ruler_2276": null
        },
        "wiki": {
          "title": null,
          "url": null,
          "description": null,
          "image": null
        },
        "svg_layer": "Border Princes"
      }
    },
    {
      "type": "Feature",
      "id": "text744",
      "geometry": {
        "type": "Point",
        "coordinates": [
          -4.741667,
          30.842941
        ]
      },
      "properties": {
        "id": "text744",
        "name": "Soqotra",
        "category": "settlement",
        "dataset": "border_princes",
        "in_gazetteer": false,
        "type": null,
        "region": "Border Princes",
        "province": null,
        "estate": null,
        "population": 110,
        "population_estimated": true,
        "size_category": 1,
        "trade": null,
        "source": null,
        "tags": [],
        "notes": [],
        "history": {
          "province_2512": null,
          "province_2276": null,
          "ruler_2515": null,
          "ruler_2512": null,
          "ruler_2276": null
        },
        "wiki": {
          "title": null,
          "url": null,
          "description": null,
          "image": null
        },
        "svg_layer": "Border Princes"
      }
    },
    {
      "type": "Feature",
      "id": "text481",
      "geometry": {
        "type": "Point",
        "coordinates": [
          8.990479,
          42.629922
        ]
      },
      "properties": {
        "id": "text481",
        "name": "Elsterholz",
        "category": "settlement",
        "dataset": "border_princes",
        "in_gazetteer": true,
        "type": null,
        "region": "Border Princes",
        "province": null,
        "estate": null,
        "population": 103,
        "population_estimated": true,
        "size_category": 1,
        "trade": null,
        "source": null,
        "tags": [],
        "notes": [],
        "history": {
          "province_2512": null,
          "province_2276": null,
          "ruler_2515": null,
          "ruler_2512": null,
          "ruler_2276": null
        },
        "wiki": {
          "title": "Yorckweg",
          "url": "https://warhammerfantasy.fandom.com/wiki/Yorckweg",
          "description": "Yorckweg, once known as Elsterholz, is a small settlement in the Border Princes. It was ruled by Albrecht Yorck, a minor Border Prince who controlled the small settlement with a despotic iron fist, holding the population under a reign of terror until his death at the hand of the infamous bounty hunter Brunner.",
          "image": "https://static.wikia.nocookie.net/warhammerfb/images/7/79/Badlands_Map.PNG/revision/latest?cb=20151204221534"
        },
        "svg_layer": "Border Princes"
      }
    },
    {
      "type": "Feature",
      "id": "text482",
      "geometry": {
        "type": "Point",
        "coordinates": [
          6.754557,
          40.935182
        ]
      },
      "properties": {
        "id": "text482",
        "name": "Dortmere",
        "category": "settlement",
        "dataset": "border_princes",
        "in_gazetteer": true,
        "type": null,
        "region": "Border Princes",
        "province": null,
        "estate": null,
        "population": 192,
        "population_estimated": true,
        "size_category": 1,
        "trade": null,
        "source": "Warhammer: Shadow of the Horned Rat (PC Game)",
        "tags": [],
        "notes": [],
        "history": {
          "province_2512": null,
          "province_2276": null,
          "ruler_2515": null,
          "ruler_2512": null,
          "ruler_2276": null
        },
        "wiki": {
          "title": null,
          "url": null,
          "description": null,
          "image": null
        },
        "svg_layer": "Border Princes"
      }
    },
    {
      "type": "Feature",
      "id": "text483",
      "geometry": {
        "type": "Point",
        "coordinates": [
          7.511394,
          40.477417
        ]
      },
      "properties": {
        "id": "text483",
        "name": "Wissenheim",
        "category": "settlement",
        "dataset": "border_princes",
        "in_gazetteer": false,
        "type": null,
        "region": "Border Princes",
        "province": null,
        "estate": null,
        "population": 273,
        "population_estimated": true,
        "size_category": 1,
        "trade": null,
        "source": null,
        "tags": [],
        "notes": [],
        "history": {
          "province_2512": null,
          "province_2276": null,
          "ruler_2515": null,
          "ruler_2512": null,
          "ruler_2276": null
        },
        "wiki": {
          "title": null,
          "url": null,
          "description": null,
          "image": null
        },
        "svg_layer": "Border Princes"
      }
    },
    {
      "type": "Feature",
      "id": "text909",
      "geometry": {
        "type": "Point",
        "coordinates": [
          -1.904723,
          37.776021
        ]
      },
      "properties": {
        "id": "text909",
        "name": "Alfori",
        "category": "settlement",
        "dataset": "border_princes",
        "in_gazetteer": true,
        "type": null,
        "region": "Border Princes",
        "province": null,
        "estate": null,
        "population": 138,
        "population_estimated": true,
        "size_category": 1,
        "trade": null,
        "source": "The End Times: The Return of Nagash (Novel) by Josh Reynolds",
        "tags": [],
        "notes": [],
        "history": {
          "province_2512": null,
          "province_2276": null,
          "ruler_2515": null,
          "ruler_2512": null,
          "ruler_2276": null
        },
        "wiki": {
          "title": "Alfori",
          "url": "https://warhammerfantasy.fandom.com/wiki/Alfori",
          "description": "Alfori is an indipendent demesne of the Border Princes ruled by the duke, Farnio Forzini. Renown for its fine millet, it is its prime export, as with so many of the tiny mountain realms of the Border Princes.",
          "image": null
        },
        "svg_layer": "Border Princes"
      }
    },
    {
      "type": "Feature",
      "id": "text910",
      "geometry": {
        "type": "Point",
        "coordinates": [
          -3.882815,
          36.678361
        ]
      },
      "properties": {
        "id": "text910",
        "name": "Alvazzo",
        "category": "settlement",
        "dataset": "border_princes",
        "in_gazetteer": true,
        "type": null,
        "region": "Border Princes",
        "province": null,
        "estate": null,
        "population": 93,
        "population_estimated": true,
        "size_category": 1,
        "trade": null,
        "source": "Warhammer Fantasy Roleplay 4e: Up in Arms",
        "tags": [],
        "notes": [],
        "history": {
          "province_2512": null,
          "province_2276": null,
          "ruler_2515": null,
          "ruler_2512": null,
          "ruler_2276": null
        },
        "wiki": {
          "title": "Alvazzo",
          "url": "https://warhammerfantasy.fandom.com/wiki/Alvazzo",
          "description": "Alvazzo is either a Tilean or Border Princes fort located near the Apuccini Mountains foothills that was once ruled by the Duke of Alvazzo.",
          "image": "https://static.wikia.nocookie.net/warhammerfb/images/6/69/Tilea1111111.jpg/revision/latest?cb=20131024184643"
        },
        "svg_layer": "Border Princes"
      }
    },
    {
      "type": "Feature",
      "id": "text911",
      "geometry": {
        "type": "Point",
        "coordinates": [
          9.182664,
          40.118079
        ]
      },
      "properties": {
        "id": "text911",
        "name": "Bechtersmoln",
        "category": "settlement",
        "dataset": "border_princes",
        "in_gazetteer": true,
        "type": null,
        "region": "Border Princes",
        "province": null,
        "estate": null,
        "population": 177,
        "population_estimated": true,
        "size_category": 1,
        "trade": null,
        "source": "Skarsnik (Novel) by Guy Haley",
        "tags": [],
        "notes": [],
        "history": {
          "province_2512": null,
          "province_2276": null,
          "ruler_2515": null,
          "ruler_2512": null,
          "ruler_2276": null
        },
        "wiki": {
          "title": "Bechtersmoln",
          "url": "https://warhammerfantasy.fandom.com/wiki/Bechtersmoln",
          "description": "Bechtersmoln is a dreary walled village in the Border Princes, located on the road to the western town of Grunnenburg. The village is characterized by its gloomy atmosphere and sparse population. It consists of a few dilapidated buildings, with most structures showing signs of decay and neglect.",
          "image": null
        },
        "svg_layer": "Border Princes"
      }
    },
    {
      "type": "Feature",
      "id": "text912",
      "geometry": {
        "type": "Point",
        "coordinates": [
          8.725185,
          40.237486
        ]
      },
      "properties": {
        "id": "text912",
        "name": "Grunnenburg",
        "category": "settlement",
        "dataset": "border_princes",
        "in_gazetteer": true,
        "type": null,
        "region": "Border Princes",
        "province": null,
        "estate": null,
        "population": 350,
        "population_estimated": true,
        "size_category": 2,
        "trade": null,
        "source": "Skarsnik (Novel) by Guy Haley",
        "tags": [],
        "notes": [],
        "history": {
          "province_2512": null,
          "province_2276": null,
          "ruler_2515": null,
          "ruler_2512": null,
          "ruler_2276": null
        },
        "wiki": {
          "title": "Grunnenburg",
          "url": "https://warhammerfantasy.fandom.com/wiki/Grunnenburg",
          "description": "Grunnenburg is a dreary little town raised on ancient ruins by Baron Harkov in the Border Princes a century ago. The current baron is the grandson of that brave pioneer. He's a sad-looking, fishy man whose face bears an expression of resentment at his ancestor’s boldness.",
          "image": null
        },
        "svg_layer": "Border Princes"
      }
    },
    {
      "type": "Feature",
      "id": "text914",
      "geometry": {
        "type": "Point",
        "coordinates": [
          4.15446,
          39.136677
        ]
      },
      "properties": {
        "id": "text914",
        "name": "Blucherlitz",
        "category": "settlement",
        "dataset": "border_princes",
        "in_gazetteer": true,
        "type": null,
        "region": "Border Princes",
        "province": null,
        "estate": null,
        "population": 341,
        "population_estimated": true,
        "size_category": 2,
        "trade": null,
        "source": "Warmaster Magazine 11",
        "tags": [],
        "notes": [],
        "history": {
          "province_2512": null,
          "province_2276": null,
          "ruler_2515": null,
          "ruler_2512": null,
          "ruler_2276": null
        },
        "wiki": {
          "title": null,
          "url": null,
          "description": null,
          "image": null
        },
        "svg_layer": "Border Princes"
      }
    },
    {
      "type": "Feature",
      "id": "text915",
      "geometry": {
        "type": "Point",
        "coordinates": [
          8.473714,
          43.92387
        ]
      },
      "properties": {
        "id": "text915",
        "name": "Castello del Dimenticato",
        "category": "settlement",
        "dataset": "border_princes",
        "in_gazetteer": true,
        "type": null,
        "region": "Border Princes",
        "province": null,
        "estate": null,
        "population": 220,
        "population_estimated": true,
        "size_category": 1,
        "trade": null,
        "source": "Angelika Fleischer - Honour of the Grave (Novel) by Robin D.Laws",
        "tags": [],
        "notes": [],
        "history": {
          "province_2512": null,
          "province_2276": null,
          "ruler_2515": null,
          "ruler_2512": null,
          "ruler_2276": null
        },
        "wiki": {
          "title": "Castello del Dimenticato",
          "url": "https://warhammerfantasy.fandom.com/wiki/Castello_del_Dimenticato",
          "description": "Castello del Dimenticato is a walled town in the middle of nowhere in the Border Princes. It is populated by people for whom anything was a step up in life. It is located just inside the gullet of Black Fire Pass, south of Averland.",
          "image": null
        },
        "svg_layer": "Border Princes"
      }
    },
    {
      "type": "Feature",
      "id": "text916",
      "geometry": {
        "type": "Point",
        "coordinates": [
          0.421142,
          38.503948
        ]
      },
      "properties": {
        "id": "text916",
        "name": "Catinari",
        "category": "settlement",
        "dataset": "border_princes",
        "in_gazetteer": true,
        "type": null,
        "region": "Border Princes",
        "province": null,
        "estate": null,
        "population": 72,
        "population_estimated": true,
        "size_category": 1,
        "trade": null,
        "source": "Warhammer Fantasy Roleplay 3e: Black Fire Pass",
        "tags": [],
        "notes": [],
        "history": {
          "province_2512": null,
          "province_2276": null,
          "ruler_2515": null,
          "ruler_2512": null,
          "ruler_2276": null
        },
        "wiki": {
          "title": "Catinari",
          "url": "https://warhammerfantasy.fandom.com/wiki/Catinari",
          "description": "Catinari was a small, ethnically Tilean principality in the Border Princes ruled by Prince Catinari I, who now leads a group of refugees after their realm was overrun by Orcs.",
          "image": null
        },
        "svg_layer": "Border Princes"
      }
    },
    {
      "type": "Feature",
      "id": "text917",
      "geometry": {
        "type": "Point",
        "coordinates": [
          12.129721,
          44.058144
        ]
      },
      "properties": {
        "id": "text917",
        "name": "Filln's Rest",
        "category": "settlement",
        "dataset": "border_princes",
        "in_gazetteer": true,
        "type": null,
        "region": "Border Princes",
        "province": null,
        "estate": null,
        "population": 69,
        "population_estimated": true,
        "size_category": 1,
        "trade": null,
        "source": "Warhammer: Shadow of the Horned Rat (PC Game)",
        "tags": [],
        "notes": [],
        "history": {
          "province_2512": null,
          "province_2276": null,
          "ruler_2515": null,
          "ruler_2512": null,
          "ruler_2276": null
        },
        "wiki": {
          "title": null,
          "url": null,
          "description": null,
          "image": null
        },
        "svg_layer": "Border Princes"
      }
    },
    {
      "type": "Feature",
      "id": "text918",
      "geometry": {
        "type": "Point",
        "coordinates": [
          8.243815,
          40.866008
        ]
      },
      "properties": {
        "id": "text918",
        "name": "Greymere",
        "category": "settlement",
        "dataset": "border_princes",
        "in_gazetteer": true,
        "type": null,
        "region": "Border Princes",
        "province": null,
        "estate": null,
        "population": 113,
        "population_estimated": true,
        "size_category": 1,
        "trade": null,
        "source": "Brunner the Bounty Hunter (Omnibus Novel) by C. L. Werner",
        "tags": [],
        "notes": [],
        "history": {
          "province_2512": null,
          "province_2276": null,
          "ruler_2515": null,
          "ruler_2512": null,
          "ruler_2276": null
        },
        "wiki": {
          "title": "Greymere",
          "url": "https://warhammerfantasy.fandom.com/wiki/Greymere",
          "description": "Greymere is a fortified city in the Border Princes, and is ruled by Prince Waldemar. The city has a pit for gladiator fights and a single inn, where Brunner the Bounty Hunter once stayed and had to defend himself against the attempted assassination of Drexler and Savio.",
          "image": "https://static.wikia.nocookie.net/warhammerfb/images/7/79/Badlands_Map.PNG/revision/latest?cb=20151204221534"
        },
        "svg_layer": "Border Princes"
      }
    },
    {
      "type": "Feature",
      "id": "text919",
      "geometry": {
        "type": "Point",
        "coordinates": [
          9.76359,
          38.345257
        ]
      },
      "properties": {
        "id": "text919",
        "name": "Gryphon's Crag",
        "category": "settlement",
        "dataset": "border_princes",
        "in_gazetteer": true,
        "type": null,
        "region": "Border Princes",
        "province": null,
        "estate": null,
        "population": 79,
        "population_estimated": true,
        "size_category": 1,
        "trade": null,
        "source": "Warhammer Fantasy Roleplay 2e: Renegade Crowns",
        "tags": [],
        "notes": [],
        "history": {
          "province_2512": null,
          "province_2276": null,
          "ruler_2515": null,
          "ruler_2512": null,
          "ruler_2276": null
        },
        "wiki": {
          "title": null,
          "url": null,
          "description": null,
          "image": null
        },
        "svg_layer": "Border Princes"
      }
    },
    {
      "type": "Feature",
      "id": "text920",
      "geometry": {
        "type": "Point",
        "coordinates": [
          5.325743,
          40.733805
        ]
      },
      "properties": {
        "id": "text920",
        "name": "Karsack",
        "category": "settlement",
        "dataset": "border_princes",
        "in_gazetteer": true,
        "type": null,
        "region": "Border Princes",
        "province": null,
        "estate": null,
        "population": 84,
        "population_estimated": true,
        "size_category": 1,
        "trade": null,
        "source": "Warhammer Fantasy Roleplay 2e: Renegade Crowns",
        "tags": [],
        "notes": [],
        "history": {
          "province_2512": null,
          "province_2276": null,
          "ruler_2515": null,
          "ruler_2512": null,
          "ruler_2276": null
        },
        "wiki": {
          "title": null,
          "url": null,
          "description": null,
          "image": null
        },
        "svg_layer": "Border Princes"
      }
    },
    {
      "type": "Feature",
      "id": "text921",
      "geometry": {
        "type": "Point",
        "coordinates": [
          1.681738,
          38.455043
        ]
      },
      "properties": {
        "id": "text921",
        "name": "Lissa",
        "category": "settlement",
        "dataset": "border_princes",
        "in_gazetteer": true,
        "type": null,
        "region": "Border Princes",
        "province": null,
        "estate": null,
        "population": 103,
        "population_estimated": true,
        "size_category": 1,
        "trade": null,
        "source": "Tamurkhan: The Throne of Chaos (8th Edition)",
        "tags": [],
        "notes": [],
        "history": {
          "province_2512": null,
          "province_2276": null,
          "ruler_2515": null,
          "ruler_2512": null,
          "ruler_2276": null
        },
        "wiki": {
          "title": "Lissa",
          "url": "https://warhammerfantasy.fandom.com/wiki/Lissa",
          "description": "Lissa is a territory located between the Black Peninsula and the contested territories of the Barony of Mirasino in the Border Princes. Its name probably originates from the famed heroine Monna Lissa Galeazzo, who in the past has fought valiantly at the siege of Monte Castello against a tide of Greenskins. Its territories are reachable from Tilea through the Lissa Road.",
          "image": "https://static.wikia.nocookie.net/warhammerfb/images/2/26/Warhammer_Tamurkhan_Border_Princes.png/revision/latest?cb=20210919161832"
        },
        "svg_layer": "Border Princes"
      }
    },
    {
      "type": "Feature",
      "id": "text922",
      "geometry": {
        "type": "Point",
        "coordinates": [
          2.248551,
          38.646383
        ]
      },
      "properties": {
        "id": "text922",
        "name": "Mirasino",
        "category": "settlement",
        "dataset": "border_princes",
        "in_gazetteer": true,
        "type": null,
        "region": "Border Princes",
        "province": null,
        "estate": null,
        "population": 92,
        "population_estimated": true,
        "size_category": 1,
        "trade": null,
        "source": "Tamurkhan: The Throne of Chaos (8th Edition)",
        "tags": [],
        "notes": [],
        "history": {
          "province_2512": null,
          "province_2276": null,
          "ruler_2515": null,
          "ruler_2512": null,
          "ruler_2276": null
        },
        "wiki": {
          "title": "Mirasino",
          "url": "https://warhammerfantasy.fandom.com/wiki/Mirasino",
          "description": "Mirasino is a barony and a contested territory located between Lissa and the Principality of Scarosio on the eastern side of the Tilean peninsula in the Border Princes. Its territories include the Dread Hall and Lament located beyond the river Tana Dante, in Lost Khypnia territory. Mirasino is reachable from Tilea through the Apuccini Mountains from the Trantio Road and the Pavona Road.",
          "image": "https://static.wikia.nocookie.net/warhammerfb/images/2/26/Warhammer_Tamurkhan_Border_Princes.png/revision/latest?cb=20210919161832"
        },
        "svg_layer": "Border Princes"
      }
    },
    {
      "type": "Feature",
      "id": "text923",
      "geometry": {
        "type": "Point",
        "coordinates": [
          1.844301,
          39.250595
        ]
      },
      "properties": {
        "id": "text923",
        "name": "Scarosio",
        "category": "settlement",
        "dataset": "border_princes",
        "in_gazetteer": true,
        "type": null,
        "region": "Border Princes",
        "province": null,
        "estate": null,
        "population": 167,
        "population_estimated": true,
        "size_category": 1,
        "trade": null,
        "source": "Tamurkhan: The Throne of Chaos (8th Edition)",
        "tags": [],
        "notes": [],
        "history": {
          "province_2512": null,
          "province_2276": null,
          "ruler_2515": null,
          "ruler_2512": null,
          "ruler_2276": null
        },
        "wiki": {
          "title": "Scarosio",
          "url": "https://warhammerfantasy.fandom.com/wiki/Scarosio",
          "description": "The Principality of Scarosio is a domain in the Border Princes. Its mercenaries have taken part in the siege of the fortress of Kerbrus the Reaver, where after cannoning the gate with a gunnery train, captain Santos decide to employ the Bright Wizard, Albrecht, to summon an Incarnate Elemental of Fire, which led to victory his army.",
          "image": "https://static.wikia.nocookie.net/warhammerfb/images/2/26/Warhammer_Tamurkhan_Border_Princes.png/revision/latest?cb=20210919161832"
        },
        "svg_layer": "Border Princes"
      }
    },
    {
      "type": "Feature",
      "id": "text924",
      "geometry": {
        "type": "Point",
        "coordinates": [
          3.015102,
          41.455328
        ]
      },
      "properties": {
        "id": "text924",
        "name": "Vimera",
        "category": "settlement",
        "dataset": "border_princes",
        "in_gazetteer": true,
        "type": null,
        "region": "Border Princes",
        "province": null,
        "estate": null,
        "population": 208,
        "population_estimated": true,
        "size_category": 1,
        "trade": null,
        "source": "Plague Daemon (Novel) by Brian Craig",
        "tags": [],
        "notes": [],
        "history": {
          "province_2512": null,
          "province_2276": null,
          "ruler_2515": null,
          "ruler_2512": null,
          "ruler_2276": null
        },
        "wiki": {
          "title": null,
          "url": null,
          "description": null,
          "image": null
        },
        "svg_layer": "Border Princes"
      }
    },
    {
      "type": "Feature",
      "id": "text925",
      "geometry": {
        "type": "Point",
        "coordinates": [
          -3.363038,
          35.31181
        ]
      },
      "properties": {
        "id": "text925",
        "name": "Organza Nova",
        "category": "settlement",
        "dataset": "border_princes",
        "in_gazetteer": true,
        "type": null,
        "region": "Border Princes",
        "province": null,
        "estate": null,
        "population": 214,
        "population_estimated": true,
        "size_category": 1,
        "trade": null,
        "source": "Warhammer Fantasy Roleplay 2e: Renegade Crowns",
        "tags": [],
        "notes": [],
        "history": {
          "province_2512": null,
          "province_2276": null,
          "ruler_2515": null,
          "ruler_2512": null,
          "ruler_2276": null
        },
        "wiki": {
          "title": "Organza Nova",
          "url": "https://warhammerfantasy.fandom.com/wiki/Organza_Nova",
          "description": "Organza Nova is a principality in the Border Princes ruled by Prince Giovanni Badrinattl. Prince Badrinatti carried the banners of the goddess Verena and her daughter Myrmidia, the goddess of war, throughout a protracted border war with the neighbouring principality of Rif al Sakhr, and was able to hoist them from the battlements of the enemy capital after a successful siege. The name of the city means \"New Organza\", and it's probably named after Organza, a Tilean city near Pavona.",
          "image": null
        },
        "svg_layer": "Border Princes"
      }
    },
    {
      "type": "Feature",
      "id": "text926",
      "geometry": {
        "type": "Point",
        "coordinates": [
          2.760824,
          39.470337
        ]
      },
      "properties": {
        "id": "text926",
        "name": "Nynda",
        "category": "settlement",
        "dataset": "border_princes",
        "in_gazetteer": true,
        "type": null,
        "region": "Border Princes",
        "province": null,
        "estate": null,
        "population": 80,
        "population_estimated": true,
        "size_category": 1,
        "trade": null,
        "source": "Alfred \"MadAlfred\" Nuñez Jr. (unofficial)",
        "tags": [],
        "notes": [],
        "history": {
          "province_2512": null,
          "province_2276": null,
          "ruler_2515": null,
          "ruler_2512": null,
          "ruler_2276": null
        },
        "wiki": {
          "title": null,
          "url": null,
          "description": null,
          "image": null
        },
        "svg_layer": "Border Princes"
      }
    },
    {
      "type": "Feature",
      "id": "text927",
      "geometry": {
        "type": "Point",
        "coordinates": [
          -1.155599,
          36.526409
        ]
      },
      "properties": {
        "id": "text927",
        "name": "Rasos",
        "category": "settlement",
        "dataset": "border_princes",
        "in_gazetteer": true,
        "type": null,
        "region": "Border Princes",
        "province": null,
        "estate": null,
        "population": 129,
        "population_estimated": true,
        "size_category": 1,
        "trade": null,
        "source": "Warhammer: The Old World",
        "tags": [],
        "notes": [],
        "history": {
          "province_2512": null,
          "province_2276": null,
          "ruler_2515": null,
          "ruler_2512": null,
          "ruler_2276": null
        },
        "wiki": {
          "title": null,
          "url": null,
          "description": null,
          "image": null
        },
        "svg_layer": "Border Princes"
      }
    },
    {
      "type": "Feature",
      "id": "text928",
      "geometry": {
        "type": "Point",
        "coordinates": [
          8.569814,
          43.062921
        ]
      },
      "properties": {
        "id": "text928",
        "name": "Sonnental",
        "category": "settlement",
        "dataset": "border_princes",
        "in_gazetteer": true,
        "type": null,
        "region": "Border Princes",
        "province": null,
        "estate": null,
        "population": 141,
        "population_estimated": true,
        "size_category": 1,
        "trade": null,
        "source": null,
        "tags": [],
        "notes": [],
        "history": {
          "province_2512": null,
          "province_2276": null,
          "ruler_2515": null,
          "ruler_2512": null,
          "ruler_2276": null
        },
        "wiki": {
          "title": "Sonnental",
          "url": "https://warhammerfantasy.fandom.com/wiki/Sonnental",
          "description": "In the northern Border Princes, in the shadow of the haunted Geistenmund Hills, lies the town of Sonnental. Originally founded by Imperial exiles, Sonnental now has a darker heritage. The town's walls are guarded by the Undead, not only to keep the marauders and Greenskins out, but also to keep the inhabitants in.",
          "image": null
        },
        "svg_layer": "Border Princes"
      }
    },
    {
      "type": "Feature",
      "id": "text929",
      "geometry": {
        "type": "Point",
        "coordinates": [
          -4.042501,
          36.353231
        ]
      },
      "properties": {
        "id": "text929",
        "name": "Tinea",
        "category": "settlement",
        "dataset": "border_princes",
        "in_gazetteer": true,
        "type": null,
        "region": "Border Princes",
        "province": null,
        "estate": null,
        "population": 114,
        "population_estimated": true,
        "size_category": 1,
        "trade": null,
        "source": null,
        "tags": [],
        "notes": [],
        "history": {
          "province_2512": null,
          "province_2276": null,
          "ruler_2515": null,
          "ruler_2512": null,
          "ruler_2276": null
        },
        "wiki": {
          "title": "Tinea",
          "url": "https://warhammerfantasy.fandom.com/wiki/Tinea",
          "description": "Tinea was an ancient Tilean city famed for its healers in the western Border Princes, not far from the border of present-day Tilea. It was there, millennia ago, that Myrmidia, the goddess of war and strategy, in her mortal form, discovered ancient texts penned by the High Elf scholar Gaelen. She was intrigued by the complexity of the anatomical drawings found within, so passed them on to the cult of her mother, Verena, the goddess of law and wisdom.",
          "image": "https://static.wikia.nocookie.net/warhammerfb/images/f/f1/Border_princes_Map_2200_CA.jpg/revision/latest?cb=20211007192107"
        },
        "svg_layer": "Border Princes"
      }
    },
    {
      "type": "Feature",
      "id": "text930",
      "geometry": {
        "type": "Point",
        "coordinates": [
          10.11149,
          40.023724
        ]
      },
      "properties": {
        "id": "text930",
        "name": "Tengey",
        "category": "settlement",
        "dataset": "border_princes",
        "in_gazetteer": true,
        "type": null,
        "region": "Border Princes",
        "province": null,
        "estate": null,
        "population": 1381,
        "population_estimated": false,
        "size_category": 3,
        "trade": null,
        "source": "Night of the Daemon (Novel) by Aaron Rosenberg",
        "tags": [],
        "notes": [],
        "history": {
          "province_2512": null,
          "province_2276": null,
          "ruler_2515": null,
          "ruler_2512": null,
          "ruler_2276": null
        },
        "wiki": {
          "title": null,
          "url": null,
          "description": null,
          "image": null
        },
        "svg_layer": "Border Princes"
      }
    },
    {
      "type": "Feature",
      "id": "text931",
      "geometry": {
        "type": "Point",
        "coordinates": [
          7.033285,
          40.766317
        ]
      },
      "properties": {
        "id": "text931",
        "name": "Vanberfg",
        "category": "settlement",
        "dataset": "border_princes",
        "in_gazetteer": false,
        "type": null,
        "region": "Border Princes",
        "province": null,
        "estate": null,
        "population": 472,
        "population_estimated": true,
        "size_category": 2,
        "trade": null,
        "source": null,
        "tags": [],
        "notes": [],
        "history": {
          "province_2512": null,
          "province_2276": null,
          "ruler_2515": null,
          "ruler_2512": null,
          "ruler_2276": null
        },
        "wiki": {
          "title": null,
          "url": null,
          "description": null,
          "image": null
        },
        "svg_layer": "Border Princes"
      }
    },
    {
      "type": "Feature",
      "id": "text932",
      "geometry": {
        "type": "Point",
        "coordinates": [
          10.196939,
          40.920939
        ]
      },
      "properties": {
        "id": "text932",
        "name": "Vassengast",
        "category": "settlement",
        "dataset": "border_princes",
        "in_gazetteer": true,
        "type": null,
        "region": "Border Princes",
        "province": null,
        "estate": null,
        "population": 186,
        "population_estimated": true,
        "size_category": 1,
        "trade": null,
        "source": "Warhammer Fantasy Roleplay 4e: Tribes and Tribulations",
        "tags": [],
        "notes": [],
        "history": {
          "province_2512": null,
          "province_2276": null,
          "ruler_2515": null,
          "ruler_2512": null,
          "ruler_2276": null
        },
        "wiki": {
          "title": null,
          "url": null,
          "description": null,
          "image": null
        },
        "svg_layer": "Border Princes"
      }
    },
    {
      "type": "Feature",
      "id": "text933",
      "geometry": {
        "type": "Point",
        "coordinates": [
          8.823649,
          43.78552
        ]
      },
      "properties": {
        "id": "text933",
        "name": "Verldorf",
        "category": "settlement",
        "dataset": "border_princes",
        "in_gazetteer": true,
        "type": null,
        "region": "Border Princes",
        "province": null,
        "estate": null,
        "population": 121,
        "population_estimated": true,
        "size_category": 1,
        "trade": null,
        "source": "Angelika Fleischer - Head Hunting (Novel) by Robin D.Laws",
        "tags": [],
        "notes": [],
        "history": {
          "province_2512": null,
          "province_2276": null,
          "ruler_2515": null,
          "ruler_2512": null,
          "ruler_2276": null
        },
        "wiki": {
          "title": null,
          "url": null,
          "description": null,
          "image": null
        },
        "svg_layer": "Border Princes"
      }
    },
    {
      "type": "Feature",
      "id": "text77",
      "geometry": {
        "type": "Point",
        "coordinates": [
          7.991232,
          44.142456
        ]
      },
      "properties": {
        "id": "text77",
        "name": "Vossheim",
        "category": "settlement",
        "dataset": "border_princes",
        "in_gazetteer": true,
        "type": null,
        "region": "Border Princes",
        "province": null,
        "estate": null,
        "population": 100,
        "population_estimated": true,
        "size_category": 1,
        "trade": null,
        "source": "Warhammer Fantasy Roleplay 3e: Black Fire Pass",
        "tags": [],
        "notes": [],
        "history": {
          "province_2512": null,
          "province_2276": null,
          "ruler_2515": null,
          "ruler_2512": null,
          "ruler_2276": null
        },
        "wiki": {
          "title": null,
          "url": null,
          "description": null,
          "image": null
        },
        "svg_layer": "Border Princes"
      }
    },
    {
      "type": "Feature",
      "id": "text974",
      "geometry": {
        "type": "Point",
        "coordinates": [
          8.876239,
          42.288949
        ]
      },
      "properties": {
        "id": "text974",
        "name": "Brezano",
        "category": "settlement",
        "dataset": "border_princes",
        "in_gazetteer": true,
        "type": null,
        "region": "Border Princes",
        "province": null,
        "estate": null,
        "population": 210,
        "population_estimated": true,
        "size_category": 1,
        "trade": null,
        "source": "Brunner the Bounty Hunter (Novel) by C.L. Werner",
        "tags": [],
        "notes": [],
        "history": {
          "province_2512": null,
          "province_2276": null,
          "ruler_2515": null,
          "ruler_2512": null,
          "ruler_2276": null
        },
        "wiki": {
          "title": "Brezano",
          "url": "https://warhammerfantasy.fandom.com/wiki/Brezano",
          "description": "Brezano is a town in the Border Princes near Yorckweg, another settlement a few days' distance away. As a town, Brezano is much larger than Yorckweg, and a typical inhabitant of the region would be amazed at the activity in the streets. Carts and beasts of burden lumber along the way, carrying sacks of meal, bolts of cloth, casks of wine and other goods uncommon in the harsh villages of the Border Princes.",
          "image": "https://static.wikia.nocookie.net/warhammerfb/images/7/79/Badlands_Map.PNG/revision/latest?cb=20151204221534"
        },
        "svg_layer": "Border Princes"
      }
    },
    {
      "type": "Feature",
      "id": "text975",
      "geometry": {
        "type": "Point",
        "coordinates": [
          9.473264,
          43.216853
        ]
      },
      "properties": {
        "id": "text975",
        "name": "Lichtenholm",
        "category": "settlement",
        "dataset": "border_princes",
        "in_gazetteer": true,
        "type": null,
        "region": "Border Princes",
        "province": null,
        "estate": null,
        "population": 99,
        "population_estimated": true,
        "size_category": 1,
        "trade": null,
        "source": "Warhammer Fantasy Roleplay 2e: Sigmar's Heir",
        "tags": [],
        "notes": [],
        "history": {
          "province_2512": null,
          "province_2276": null,
          "ruler_2515": null,
          "ruler_2512": null,
          "ruler_2276": null
        },
        "wiki": {
          "title": "Lichtenberg",
          "url": "https://warhammerfantasy.fandom.com/wiki/Lichtenberg",
          "description": "Lichtenberg, also called Lichtenholm, was an Imperial province founded by Emperor Sigismund II as part of a southern expansion of the Empire during his reign sometime between 479 and 505 IC. It was established in the region of the Border Princes, a wild and tribal region located to the south of the Empire. Sigismund II's campaign in this area aimed to bring the unruly lands under Imperial control and secure the Empire's southeastern borders.",
          "image": null
        },
        "svg_layer": "Border Princes"
      }
    },
    {
      "type": "Feature",
      "id": "text979",
      "geometry": {
        "type": "Point",
        "coordinates": [
          -0.74664,
          37.481105
        ]
      },
      "properties": {
        "id": "text979",
        "name": "Maltane",
        "category": "settlement",
        "dataset": "border_princes",
        "in_gazetteer": true,
        "type": null,
        "region": "Border Princes",
        "province": null,
        "estate": null,
        "population": 62,
        "population_estimated": true,
        "size_category": 1,
        "trade": null,
        "source": "Gilead (Part 1) - Gilead's Blood (Novel) by Dan Abnett and Nik Vincent",
        "tags": [],
        "notes": [],
        "history": {
          "province_2512": null,
          "province_2276": null,
          "ruler_2515": null,
          "ruler_2512": null,
          "ruler_2276": null
        },
        "wiki": {
          "title": "Maltane",
          "url": "https://warhammerfantasy.fandom.com/wiki/Maltane",
          "description": "Maltane is a small settlement in the Border Princes. Beyond the village, the woods are thick and rise to southern hills with jagged crests. To the west and east lies more woodland, following the bowl of the valley.",
          "image": "https://static.wikia.nocookie.net/warhammerfb/images/f/f1/Border_princes_Map_2200_CA.jpg/revision/latest?cb=20211007192107"
        },
        "svg_layer": "Border Princes"
      }
    },
    {
      "type": "Feature",
      "id": "text980",
      "geometry": {
        "type": "Point",
        "coordinates": [
          -2.894084,
          35.744141
        ]
      },
      "properties": {
        "id": "text980",
        "name": "Schipdorf",
        "category": "settlement",
        "dataset": "border_princes",
        "in_gazetteer": true,
        "type": null,
        "region": "Border Princes",
        "province": null,
        "estate": null,
        "population": 227,
        "population_estimated": true,
        "size_category": 1,
        "trade": null,
        "source": null,
        "tags": [],
        "notes": [],
        "history": {
          "province_2512": null,
          "province_2276": null,
          "ruler_2515": null,
          "ruler_2512": null,
          "ruler_2276": null
        },
        "wiki": {
          "title": "Schipdorf",
          "url": "https://warhammerfantasy.fandom.com/wiki/Schipdorf",
          "description": "Schipdorf was the site of a siege in which Maximilian Damark led the Miragliano Marskmen into the breach for first, and the siege thus brought to a successful conclusion. The captain was just slightly injured.",
          "image": "https://static.wikia.nocookie.net/warhammerfb/images/a/a6/Marskmen1.png/revision/latest?cb=20210330140246"
        },
        "svg_layer": "Border Princes"
      }
    },
    {
      "type": "Feature",
      "id": "text981",
      "geometry": {
        "type": "Point",
        "coordinates": [
          -2.415975,
          35.825523
        ]
      },
      "properties": {
        "id": "text981",
        "name": "Vlent",
        "category": "settlement",
        "dataset": "border_princes",
        "in_gazetteer": true,
        "type": null,
        "region": "Border Princes",
        "province": null,
        "estate": null,
        "population": 97,
        "population_estimated": true,
        "size_category": 1,
        "trade": null,
        "source": null,
        "tags": [],
        "notes": [],
        "history": {
          "province_2512": null,
          "province_2276": null,
          "ruler_2515": null,
          "ruler_2512": null,
          "ruler_2276": null
        },
        "wiki": {
          "title": "Vlent",
          "url": "https://warhammerfantasy.fandom.com/wiki/Vlent",
          "description": "The city of Vlent in the Empire was the site of a great battle in which the mercenary band of the Marksmen of Miragliano won, gaining great fame.",
          "image": "https://static.wikia.nocookie.net/warhammerfb/images/a/a6/Marskmen1.png/revision/latest?cb=20210330140246"
        },
        "svg_layer": "Border Princes"
      }
    },
    {
      "type": "Feature",
      "id": "text982",
      "geometry": {
        "type": "Point",
        "coordinates": [
          -2.565511,
          35.220255
        ]
      },
      "properties": {
        "id": "text982",
        "name": "Volrisa",
        "category": "settlement",
        "dataset": "border_princes",
        "in_gazetteer": true,
        "type": null,
        "region": "Border Princes",
        "province": null,
        "estate": null,
        "population": 330,
        "population_estimated": true,
        "size_category": 2,
        "trade": null,
        "source": "Alfred \"MadAlfred\" Nuñez Jr. (unofficial)",
        "tags": [],
        "notes": [],
        "history": {
          "province_2512": null,
          "province_2276": null,
          "ruler_2515": null,
          "ruler_2512": null,
          "ruler_2276": null
        },
        "wiki": {
          "title": null,
          "url": null,
          "description": null,
          "image": null
        },
        "svg_layer": "Border Princes"
      }
    },
    {
      "type": "Feature",
      "id": "text1055",
      "geometry": {
        "type": "Point",
        "coordinates": [
          8.060059,
          39.065769
        ]
      },
      "properties": {
        "id": "text1055",
        "name": "Aldium",
        "category": "settlement",
        "dataset": "border_princes",
        "in_gazetteer": false,
        "type": null,
        "region": "Border Princes",
        "province": null,
        "estate": null,
        "population": 97,
        "population_estimated": true,
        "size_category": 1,
        "trade": null,
        "source": null,
        "tags": [],
        "notes": [],
        "history": {
          "province_2512": null,
          "province_2276": null,
          "ruler_2515": null,
          "ruler_2512": null,
          "ruler_2276": null
        },
        "wiki": {
          "title": null,
          "url": null,
          "description": null,
          "image": null
        },
        "svg_layer": "Border Princes"
      }
    }
  ]
}