{
  "type": "FeatureCollection",
  "name": "settlements_albion",
  "schema_version": 2,
  "features": [
    {
      "type": "Feature",
      "id": "copy_text_14635",
      "geometry": {
        "type": "Point",
        "coordinates": [
          -17.899159,
          58.547588
        ]
      },
      "properties": {
        "id": "copy_text_14635",
        "name": "Bol-A-Hat",
        "category": "settlement",
        "dataset": "albion",
        "in_gazetteer": true,
        "type": null,
        "region": "Albion",
        "province": null,
        "estate": null,
        "population": 6000,
        "population_estimated": false,
        "size_category": 4,
        "trade": null,
        "source": null,
        "tags": [],
        "notes": [],
        "history": {
          "province_2512": null,
          "province_2276": null,
          "ruler_2515": null,
          "ruler_2512": null,
          "ruler_2276": null
        },
        "wiki": {
          "title": "Bol-A-Hat",
          "url": "https://warhammerfantasy.fandom.com/wiki/Bol-A-Hat",
          "description": "Bol-A-Hat is the largest concentration of native people on the isle of Albion. Whereas across the rest of the isle, the people are primarily cave-dwellers, in Bol-A-Hat the natives have begun to erect crude huts and tents. Indeed this was a necessity, for the population soon outgrew the caves within the area.",
          "image": "https://static.wikia.nocookie.net/warhammerfb/images/f/f8/Map_of_Bol-A-Hat.png/revision/latest?cb=20251007010615"
        },
        "svg_layer": "Albion"
      }
    },
    {
      "type": "Feature",
      "id": "copy_text_14636",
      "geometry": {
        "type": "Point",
        "coordinates": [
          -18.76411,
          57.799551
        ]
      },
      "properties": {
        "id": "copy_text_14636",
        "name": "Great Hogs",
        "category": "settlement",
        "dataset": "albion",
        "in_gazetteer": false,
        "type": null,
        "region": "Albion",
        "province": null,
        "estate": null,
        "population": 161,
        "population_estimated": true,
        "size_category": 1,
        "trade": null,
        "source": null,
        "tags": [],
        "notes": [],
        "history": {
          "province_2512": null,
          "province_2276": null,
          "ruler_2515": null,
          "ruler_2512": null,
          "ruler_2276": null
        },
        "wiki": {
          "title": null,
          "url": null,
          "description": null,
          "image": null
        },
        "svg_layer": "Albion"
      }
    },
    {
      "type": "Feature",
      "id": "copy_text_14637",
      "geometry": {
        "type": "Point",
        "coordinates": [
          -18.913726,
          59.672277
        ]
      },
      "properties": {
        "id": "copy_text_14637",
        "name": "Ochness",
        "category": "settlement",
        "dataset": "albion",
        "in_gazetteer": false,
        "type": null,
        "region": "Albion",
        "province": null,
        "estate": null,
        "population": 178,
        "population_estimated": true,
        "size_category": 1,
        "trade": null,
        "source": null,
        "tags": [],
        "notes": [],
        "history": {
          "province_2512": null,
          "province_2276": null,
          "ruler_2515": null,
          "ruler_2512": null,
          "ruler_2276": null
        },
        "wiki": {
          "title": null,
          "url": null,
          "description": null,
          "image": null
        },
        "svg_layer": "Albion"
      }
    },
    {
      "type": "Feature",
      "id": "copy_text_14638",
      "geometry": {
        "type": "Point",
        "coordinates": [
          -18.374006,
          58.801173
        ]
      },
      "properties": {
        "id": "copy_text_14638",
        "name": "Konquata",
        "category": "settlement",
        "dataset": "albion",
        "in_gazetteer": false,
        "type": null,
        "region": "Albion",
        "province": null,
        "estate": null,
        "population": 63,
        "population_estimated": true,
        "size_category": 1,
        "trade": null,
        "source": null,
        "tags": [],
        "notes": [],
        "history": {
          "province_2512": null,
          "province_2276": null,
          "ruler_2515": null,
          "ruler_2512": null,
          "ruler_2276": null
        },
        "wiki": {
          "title": null,
          "url": null,
          "description": null,
          "image": null
        },
        "svg_layer": "Albion"
      }
    },
    {
      "type": "Feature",
      "id": "copy_text_14639",
      "geometry": {
        "type": "Point",
        "coordinates": [
          -17.792432,
          59.816595
        ]
      },
      "properties": {
        "id": "copy_text_14639",
        "name": "Crannog Mere",
        "category": "settlement",
        "dataset": "albion",
        "in_gazetteer": false,
        "type": null,
        "region": "Albion",
        "province": null,
        "estate": null,
        "population": 257,
        "population_estimated": true,
        "size_category": 1,
        "trade": null,
        "source": null,
        "tags": [],
        "notes": [],
        "history": {
          "province_2512": null,
          "province_2276": null,
          "ruler_2515": null,
          "ruler_2512": null,
          "ruler_2276": null
        },
        "wiki": {
          "title": null,
          "url": null,
          "description": null,
          "image": null
        },
        "svg_layer": "Albion"
      }
    },
    {
      "type": "Feature",
      "id": "copy_text_14641",
      "geometry": {
        "type": "Point",
        "coordinates": [
          -19.75429,
          58.787463
        ]
      },
      "properties": {
        "id": "copy_text_14641",
        "name": "Ohbuhu",
        "category": "settlement",
        "dataset": "albion",
        "in_gazetteer": false,
        "type": null,
        "region": "Albion",
        "province": null,
        "estate": null,
        "population": 262,
        "population_estimated": true,
        "size_category": 1,
        "trade": null,
        "source": null,
        "tags": [],
        "notes": [],
        "history": {
          "province_2512": null,
          "province_2276": null,
          "ruler_2515": null,
          "ruler_2512": null,
          "ruler_2276": null
        },
        "wiki": {
          "title": null,
          "url": null,
          "description": null,
          "image": null
        },
        "svg_layer": "Albion"
      }
    },
    {
      "type": "Feature",
      "id": "copy_text_14642",
      "geometry": {
        "type": "Point",
        "coordinates": [
          -18.624674,
          59.835572
        ]
      },
      "properties": {
        "id": "copy_text_14642",
        "name": "Nagronath",
        "category": "settlement",
        "dataset": "albion",
        "in_gazetteer": false,
        "type": null,
        "region": "Albion",
        "province": null,
        "estate": null,
        "population": 163,
        "population_estimated": true,
        "size_category": 1,
        "trade": null,
        "source": null,
        "tags": [],
        "notes": [],
        "history": {
          "province_2512": null,
          "province_2276": null,
          "ruler_2515": null,
          "ruler_2512": null,
          "ruler_2276": null
        },
        "wiki": {
          "title": null,
          "url": null,
          "description": null,
          "image": null
        },
        "svg_layer": "Albion"
      }
    },
    {
      "type": "Feature",
      "id": "copy_text_14643",
      "geometry": {
        "type": "Point",
        "coordinates": [
          -17.152863,
          59.626241
        ]
      },
      "properties": {
        "id": "copy_text_14643",
        "name": "Tref-Niwlen",
        "category": "settlement",
        "dataset": "albion",
        "in_gazetteer": false,
        "type": null,
        "region": "Albion",
        "province": null,
        "estate": null,
        "population": 270,
        "population_estimated": true,
        "size_category": 1,
        "trade": null,
        "source": null,
        "tags": [],
        "notes": [],
        "history": {
          "province_2512": null,
          "province_2276": null,
          "ruler_2515": null,
          "ruler_2512": null,
          "ruler_2276": null
        },
        "wiki": {
          "title": null,
          "url": null,
          "description": null,
          "image": null
        },
        "svg_layer": "Albion"
      }
    },
    {
      "type": "Feature",
      "id": "copy_text_14644",
      "geometry": {
        "type": "Point",
        "coordinates": [
          -19.843643,
          57.816122
        ]
      },
      "properties": {
        "id": "copy_text_14644",
        "name": "Maes-Cysegr",
        "category": "settlement",
        "dataset": "albion",
        "in_gazetteer": false,
        "type": null,
        "region": "Albion",
        "province": null,
        "estate": null,
        "population": 108,
        "population_estimated": true,
        "size_category": 1,
        "trade": null,
        "source": null,
        "tags": [],
        "notes": [],
        "history": {
          "province_2512": null,
          "province_2276": null,
          "ruler_2515": null,
          "ruler_2512": null,
          "ruler_2276": null
        },
        "wiki": {
          "title": null,
          "url": null,
          "description": null,
          "image": null
        },
        "svg_layer": "Albion"
      }
    },
    {
      "type": "Feature",
      "id": "copy_text_14645",
      "geometry": {
        "type": "Point",
        "coordinates": [
          -18.306056,
          58.526912
        ]
      },
      "properties": {
        "id": "copy_text_14645",
        "name": "Bod Druidion",
        "category": "settlement",
        "dataset": "albion",
        "in_gazetteer": false,
        "type": null,
        "region": "Albion",
        "province": null,
        "estate": null,
        "population": 185,
        "population_estimated": true,
        "size_category": 1,
        "trade": null,
        "source": null,
        "tags": [],
        "notes": [],
        "history": {
          "province_2512": null,
          "province_2276": null,
          "ruler_2515": null,
          "ruler_2512": null,
          "ruler_2276": null
        },
        "wiki": {
          "title": null,
          "url": null,
          "description": null,
          "image": null
        },
        "svg_layer": "Albion"
      }
    },
    {
      "type": "Feature",
      "id": "copy_text_14646",
      "geometry": {
        "type": "Point",
        "coordinates": [
          -17.815778,
          57.768245
        ]
      },
      "properties": {
        "id": "copy_text_14646",
        "name": "Caer-yr-Hen-Rai",
        "category": "settlement",
        "dataset": "albion",
        "in_gazetteer": false,
        "type": null,
        "region": "Albion",
        "province": null,
        "estate": null,
        "population": 354,
        "population_estimated": true,
        "size_category": 2,
        "trade": null,
        "source": null,
        "tags": [],
        "notes": [],
        "history": {
          "province_2512": null,
          "province_2276": null,
          "ruler_2515": null,
          "ruler_2512": null,
          "ruler_2276": null
        },
        "wiki": {
          "title": null,
          "url": null,
          "description": null,
          "image": null
        },
        "svg_layer": "Albion"
      }
    },
    {
      "type": "Feature",
      "id": "copy_text_14647",
      "geometry": {
        "type": "Point",
        "coordinates": [
          -19.028815,
          59.042511
        ]
      },
      "properties": {
        "id": "copy_text_14647",
        "name": "Camre'r-Hynafiad",
        "category": "settlement",
        "dataset": "albion",
        "in_gazetteer": false,
        "type": null,
        "region": "Albion",
        "province": null,
        "estate": null,
        "population": 65,
        "population_estimated": true,
        "size_category": 1,
        "trade": null,
        "source": null,
        "tags": [],
        "notes": [],
        "history": {
          "province_2512": null,
          "province_2276": null,
          "ruler_2515": null,
          "ruler_2512": null,
          "ruler_2276": null
        },
        "wiki": {
          "title": null,
          "url": null,
          "description": null,
          "image": null
        },
        "svg_layer": "Albion"
      }
    },
    {
      "type": "Feature",
      "id": "copy_text_14648",
      "geometry": {
        "type": "Point",
        "coordinates": [
          -20.003621,
          57.584104
        ]
      },
      "properties": {
        "id": "copy_text_14648",
        "name": "Maen-Hynaf",
        "category": "settlement",
        "dataset": "albion",
        "in_gazetteer": false,
        "type": null,
        "region": "Albion",
        "province": null,
        "estate": null,
        "population": 63,
        "population_estimated": true,
        "size_category": 1,
        "trade": null,
        "source": null,
        "tags": [],
        "notes": [],
        "history": {
          "province_2512": null,
          "province_2276": null,
          "ruler_2515": null,
          "ruler_2512": null,
          "ruler_2276": null
        },
        "wiki": {
          "title": null,
          "url": null,
          "description": null,
          "image": null
        },
        "svg_layer": "Albion"
      }
    },
    {
      "type": "Feature",
      "id": "copy_text_14649",
      "geometry": {
        "type": "Point",
        "coordinates": [
          -18.592124,
          57.510051
        ]
      },
      "properties": {
        "id": "copy_text_14649",
        "name": "Dun Afalon",
        "category": "settlement",
        "dataset": "albion",
        "in_gazetteer": false,
        "type": null,
        "region": "Albion",
        "province": null,
        "estate": null,
        "population": 254,
        "population_estimated": true,
        "size_category": 1,
        "trade": null,
        "source": null,
        "tags": [],
        "notes": [],
        "history": {
          "province_2512": null,
          "province_2276": null,
          "ruler_2515": null,
          "ruler_2512": null,
          "ruler_2276": null
        },
        "wiki": {
          "title": null,
          "url": null,
          "description": null,
          "image": null
        },
        "svg_layer": "Albion"
      }
    },
    {
      "type": "Feature",
      "id": "copy_text_14650",
      "geometry": {
        "type": "Point",
        "coordinates": [
          -16.961264,
          58.267863
        ]
      },
      "properties": {
        "id": "copy_text_14650",
        "name": "Nant-yr-Hebog",
        "category": "settlement",
        "dataset": "albion",
        "in_gazetteer": false,
        "type": null,
        "region": "Albion",
        "province": null,
        "estate": null,
        "population": 186,
        "population_estimated": true,
        "size_category": 1,
        "trade": null,
        "source": null,
        "tags": [],
        "notes": [],
        "history": {
          "province_2512": null,
          "province_2276": null,
          "ruler_2515": null,
          "ruler_2512": null,
          "ruler_2276": null
        },
        "wiki": {
          "title": null,
          "url": null,
          "description": null,
          "image": null
        },
        "svg_layer": "Albion"
      }
    },
    {
      "type": "Feature",
      "id": "copy_text_14651",
      "geometry": {
        "type": "Point",
        "coordinates": [
          -20.250652,
          57.314738
        ]
      },
      "properties": {
        "id": "copy_text_14651",
        "name": "Coed-Ysgarlad",
        "category": "settlement",
        "dataset": "albion",
        "in_gazetteer": false,
        "type": null,
        "region": "Albion",
        "province": null,
        "estate": null,
        "population": 151,
        "population_estimated": true,
        "size_category": 1,
        "trade": null,
        "source": null,
        "tags": [],
        "notes": [],
        "history": {
          "province_2512": null,
          "province_2276": null,
          "ruler_2515": null,
          "ruler_2512": null,
          "ruler_2276": null
        },
        "wiki": {
          "title": null,
          "url": null,
          "description": null,
          "image": null
        },
        "svg_layer": "Albion"
      }
    },
    {
      "type": "Feature",
      "id": "text16864",
      "geometry": {
        "type": "Point",
        "coordinates": [
          -16.581103,
          58.655814
        ]
      },
      "properties": {
        "id": "text16864",
        "name": "Blóðströnd (Losteriksson's Third Landing)",
        "category": "settlement",
        "dataset": "albion",
        "in_gazetteer": false,
        "type": null,
        "region": "Albion",
        "province": null,
        "estate": null,
        "population": 151,
        "population_estimated": true,
        "size_category": 1,
        "trade": null,
        "source": null,
        "tags": [],
        "notes": [],
        "history": {
          "province_2512": null,
          "province_2276": null,
          "ruler_2515": null,
          "ruler_2512": null,
          "ruler_2276": null
        },
        "wiki": {
          "title": null,
          "url": null,
          "description": null,
          "image": null
        },
        "svg_layer": "Albion"
      }
    },
    {
      "type": "Feature",
      "id": "text16865",
      "geometry": {
        "type": "Point",
        "coordinates": [
          -17.212706,
          60.053511
        ]
      },
      "properties": {
        "id": "text16865",
        "name": "Skeljavik (Losteriksson's First Landing)",
        "category": "settlement",
        "dataset": "albion",
        "in_gazetteer": false,
        "type": null,
        "region": "Albion",
        "province": null,
        "estate": null,
        "population": 144,
        "population_estimated": true,
        "size_category": 1,
        "trade": null,
        "source": null,
        "tags": [],
        "notes": [],
        "history": {
          "province_2512": null,
          "province_2276": null,
          "ruler_2515": null,
          "ruler_2512": null,
          "ruler_2276": null
        },
        "wiki": {
          "title": null,
          "url": null,
          "description": null,
          "image": null
        },
        "svg_layer": "Albion"
      }
    },
    {
      "type": "Feature",
      "id": "text16866",
      "geometry": {
        "type": "Point",
        "coordinates": [
          -16.516443,
          59.261047
        ]
      },
      "properties": {
        "id": "text16866",
        "name": "Hrafnberg (Losteriksson's Second Landing)",
        "category": "settlement",
        "dataset": "albion",
        "in_gazetteer": false,
        "type": null,
        "region": "Albion",
        "province": null,
        "estate": null,
        "population": 163,
        "population_estimated": true,
        "size_category": 1,
        "trade": null,
        "source": null,
        "tags": [],
        "notes": [],
        "history": {
          "province_2512": null,
          "province_2276": null,
          "ruler_2515": null,
          "ruler_2512": null,
          "ruler_2276": null
        },
        "wiki": {
          "title": null,
          "url": null,
          "description": null,
          "image": null
        },
        "svg_layer": "Albion"
      }
    },
    {
      "type": "Feature",
      "id": "text16867",
      "geometry": {
        "type": "Point",
        "coordinates": [
          -17.456103,
          60.448782
        ]
      },
      "properties": {
        "id": "text16867",
        "name": "Dwimmurvik (Losteriksson's Fourth Landing)",
        "category": "settlement",
        "dataset": "albion",
        "in_gazetteer": false,
        "type": null,
        "region": "Albion",
        "province": null,
        "estate": null,
        "population": 427,
        "population_estimated": true,
        "size_category": 2,
        "trade": null,
        "source": null,
        "tags": [],
        "notes": [],
        "history": {
          "province_2512": null,
          "province_2276": null,
          "ruler_2515": null,
          "ruler_2512": null,
          "ruler_2276": null
        },
        "wiki": {
          "title": null,
          "url": null,
          "description": null,
          "image": null
        },
        "svg_layer": "Albion"
      }
    }
  ]
}